{
"type": "FeatureCollection",
"name": "Con_Recursos_Loc",
"crs": { "type": "name", "properties": { "name": "urn:ogc:def:crs:OGC:1.3:CRS84" } },
"bbox": [ -94.0397063016296, 18.2313424228108, -92.7448954739469, 18.5833333436589 ],                                              
"features": [
{ "type": "Feature", "properties": { "nombre": "CRATER", "comentario": null }, "bbox": [ -92.787744173754561, 18.490944831538787, -92.74489547394694, 18.545509416026796 ], "geometry": { "type": "MultiPolygon", "coordinates": [ [ [ [ -92.774365885976806, 18.545319238192352 ], [ -92.773634012299794, 18.545509416026796 ], [ -92.773634012299794, 18.545509416026796 ], [ -92.762729524747726, 18.543317853636086 ], [ -92.755739081893068, 18.536186929483279 ], [ -92.756493071697889, 18.528324759380205 ], [ -92.754004500107555, 18.521750336608847 ], [ -92.749143707615985, 18.518427467553643 ], [ -92.74784437611703, 18.512243673406818 ], [ -92.745472186692041, 18.504068218173767 ], [ -92.74489547394694, 18.497317790883393 ], [ -92.746366836760046, 18.491079090427665 ], [ -92.750871770216008, 18.490944831538787 ], [ -92.752498920788526, 18.49244729560623 ], [ -92.754308390919448, 18.496317972296641 ], [ -92.757826679057928, 18.499006830101131 ], [ -92.759746042745633, 18.504368885815509 ], [ -92.761413475751283, 18.511131510610756 ], [ -92.76613384180331, 18.515334051525294 ], [ -92.770989611581285, 18.518265383640564 ], [ -92.776012014942523, 18.52400156541993 ], [ -92.782677661344962, 18.528728554079578 ], [ -92.787744173754561, 18.533360511378543 ], [ -92.787057089013388, 18.537300354028201 ], [ -92.786908763828364, 18.542298258058242 ], [ -92.784811682413192, 18.543922738543564 ], [ -92.774365885976806, 18.545319238192352 ] ] ] ] } },
{ "type": "Feature", "properties": { "nombre": "MECOACAN", "comentario": null }, "bbox": [ -93.120353769999952, 18.317697195000051, -93.039269997999952, 18.354378843000063 ], "geometry": { "type": "MultiPolygon", "coordinates": [ [ [ [ -93.120353769999952, 18.344527614000071 ], [ -93.11361398799994, 18.349540110000078 ], [ -93.106871835999982, 18.351809239000033 ], [ -93.091637416999959, 18.35360563200004 ], [ -93.077900979999981, 18.354328029000044 ], [ -93.072234243999958, 18.354378843000063 ], [ -93.067735391999975, 18.353968121000037 ], [ -93.06228445499994, 18.351987198000074 ], [ -93.055709093999951, 18.350088924000033 ], [ -93.048268652, 18.347943220000047 ], [ -93.042385552999974, 18.345384510000031 ], [ -93.039269997999952, 18.339519295000059 ], [ -93.048782802999938, 18.330347695000057 ], [ -93.060285157999942, 18.324479646000043 ], [ -93.07230631799996, 18.320013912000036 ], [ -93.078384390999986, 18.318434319000062 ], [ -93.082251894999956, 18.317697195000051 ], [ -93.087124396999968, 18.319027061000043 ], [ -93.094866221999951, 18.320453690000022 ], [ -93.110103427999945, 18.327720247000059 ], [ -93.117224720999957, 18.33391630400007 ], [ -93.12006658599995, 18.338446130000023 ], [ -93.120353769999952, 18.344527614000071 ] ] ] ] } },
{ "type": "Feature", "properties": { "nombre": "SAN ALFONSO", "comentario": null }, "bbox": [ -93.977050849041149, 18.23134242281084, -93.95900361704048, 18.252689525797635 ], "geometry": { "type": "MultiPolygon", "coordinates": [ [ [ [ -93.961538754041015, 18.231357559810892 ], [ -93.961729382041071, 18.23134242281084 ], [ -93.961936642041039, 18.231345098810827 ], [ -93.962413532041111, 18.231404330810758 ], [ -93.963673711041167, 18.231698955810465 ], [ -93.964140225041248, 18.23183035181037 ], [ -93.964754478041257, 18.23205161481021 ], [ -93.965382679041284, 18.232331637809953 ], [ -93.966029715041373, 18.232672529809694 ], [ -93.966705293041358, 18.233079380809439 ], [ -93.967417705041356, 18.233556453809058 ], [ -93.968213600041409, 18.234134544808672 ], [ -93.969432137041437, 18.23507041580805 ], [ -93.970147041041443, 18.235658028807638 ], [ -93.970882018041465, 18.236315281807169 ], [ -93.97159370304152, 18.237007595806713 ], [ -93.972277852041515, 18.237730878806232 ], [ -93.972930337041504, 18.238480721805736 ], [ -93.973523174041503, 18.239221274805281 ], [ -93.974079857041488, 18.239977980804792 ], [ -93.974711405041489, 18.24091700680416 ], [ -93.975253637041448, 18.24178000980362 ], [ -93.975643952041423, 18.242460651803203 ], [ -93.975969931041405, 18.243097447802796 ], [ -93.976239465041402, 18.24370574180244 ], [ -93.976456830041329, 18.244295479802037 ], [ -93.976716092041272, 18.245131418801538 ], [ -93.976895457041223, 18.245859790801127 ], [ -93.977006619041191, 18.246528538800682 ], [ -93.977050849041149, 18.247148343800355 ], [ -93.9770476460411, 18.247681238800038 ], [ -93.977017219041059, 18.248170829799776 ], [ -93.97695914604104, 18.248623379799493 ], [ -93.976873154041016, 18.249040933799289 ], [ -93.976759667040923, 18.249422805799068 ], [ -93.976565835040901, 18.249923938798798 ], [ -93.976377220040845, 18.250318000798575 ], [ -93.976173228040835, 18.250661728798359 ], [ -93.975962630040783, 18.250945298798225 ], [ -93.975730647040706, 18.251192194798126 ], [ -93.975441134040693, 18.251440880797968 ], [ -93.975100897040591, 18.251683614797901 ], [ -93.974715239040549, 18.251917019797759 ], [ -93.974398319040546, 18.252074632797697 ], [ -93.974017797040517, 18.252223850797623 ], [ -93.973594284040416, 18.252352530797623 ], [ -93.973048433040404, 18.252477049797605 ], [ -93.972411573040318, 18.252582907797567 ], [ -93.971805547040248, 18.252656717797592 ], [ -93.971230691040176, 18.252689525797635 ], [ -93.970649668040139, 18.252686561797653 ], [ -93.970054291040114, 18.252649001797717 ], [ -93.969449847040039, 18.252577180797861 ], [ -93.968842695039996, 18.252471841797959 ], [ -93.96821734603995, 18.252328390798109 ], [ -93.967605186039904, 18.252152133798237 ], [ -93.966986139039861, 18.251936630798415 ], [ -93.966387511039869, 18.251690876798627 ], [ -93.965823918039803, 18.2514210937988 ], [ -93.965302326039762, 18.251130805799043 ], [ -93.964824366039778, 18.250820156799236 ], [ -93.964422588039753, 18.250510617799449 ], [ -93.96417954203973, 18.250287150799597 ], [ -93.96394563403976, 18.2500409967998 ], [ -93.963720066039741, 18.249771294799928 ], [ -93.963501688039742, 18.249476684800165 ], [ -93.963290178039756, 18.249156968800328 ], [ -93.963082639039811, 18.248808016800584 ], [ -93.96266812903977, 18.248002727801058 ], [ -93.962341711039812, 18.247276145801528 ], [ -93.961605838039929, 18.245534011802576 ], [ -93.960815128039954, 18.243828255803656 ], [ -93.960396335040016, 18.24284845880425 ], [ -93.960170575040024, 18.242253951804599 ], [ -93.959970282040047, 18.241657838804986 ], [ -93.959753133040124, 18.24094347080543 ], [ -93.959565564040119, 18.240250750805846 ], [ -93.959409940040203, 18.239591020806234 ], [ -93.959282018040199, 18.238949287806616 ], [ -93.959181624040284, 18.238324705806985 ], [ -93.959108677040291, 18.237716779807357 ], [ -93.959051138040337, 18.236851012807875 ], [ -93.95900361704048, 18.235133960808881 ], [ -93.959005734040545, 18.234583212809177 ], [ -93.959028859040544, 18.234211486809421 ], [ -93.959071963040614, 18.2338798848096 ], [ -93.959136084040651, 18.233580545809787 ], [ -93.959221996040696, 18.233310228809941 ], [ -93.959322103040705, 18.233082735810051 ], [ -93.959442180040753, 18.23287716981012 ], [ -93.95962089004081, 18.232638764810293 ], [ -93.959832183040803, 18.232397123810415 ], [ -93.960256376040832, 18.231998197810608 ], [ -93.960477910040893, 18.231827260810693 ], [ -93.960700227040945, 18.231679776810736 ], [ -93.960919149040933, 18.23155836481078 ], [ -93.961133374041026, 18.231463577810853 ], [ -93.961341895041059, 18.231396014810862 ], [ -93.961538754041015, 18.231357559810892 ] ] ] ] } },
{ "type": "Feature", "properties": { "nombre": "CARDO", "comentario": null }, "bbox": [ -92.981265457940552, 18.337292481828147, -92.968268178940264, 18.354984338817193 ], "geometry": { "type": "MultiPolygon", "coordinates": [ [ [ [ -92.969960761940555, 18.337309943828171 ], [ -92.970262161940596, 18.337292481828147 ], [ -92.970547807940619, 18.337312148828122 ], [ -92.970807189940643, 18.337368113828067 ], [ -92.971002394940655, 18.337443560828035 ], [ -92.97121695594069, 18.337565243827928 ], [ -92.971414253940679, 18.337702463827831 ], [ -92.971594952940677, 18.337866115827747 ], [ -92.97188354694066, 18.338212711827509 ], [ -92.972458259940694, 18.339050168826965 ], [ -92.972936251940666, 18.339731410826516 ], [ -92.973976989940667, 18.341407043825445 ], [ -92.974481238940626, 18.342142500825016 ], [ -92.974953056940677, 18.342720823824653 ], [ -92.976064848940666, 18.343929055823871 ], [ -92.976492148940679, 18.344469611823513 ], [ -92.976829478940658, 18.345003304823194 ], [ -92.977511463940658, 18.346278613822388 ], [ -92.977846683940641, 18.346830320822047 ], [ -92.978043822940634, 18.347104048821851 ], [ -92.978278808940644, 18.347395566821699 ], [ -92.979293106940673, 18.34852299982094 ], [ -92.979702392940666, 18.349028415820626 ], [ -92.979902239940628, 18.349319429820461 ], [ -92.980241318940656, 18.349877095820066 ], [ -92.980678403940615, 18.350674899819591 ], [ -92.980943113940612, 18.35129331481923 ], [ -92.981036454940622, 18.351582420819071 ], [ -92.981104976940586, 18.351861628818895 ], [ -92.981249433940533, 18.35284131381832 ], [ -92.981265457940552, 18.353173770818092 ], [ -92.981248834940502, 18.353459984817952 ], [ -92.981209972940491, 18.353668594817837 ], [ -92.981148000940451, 18.353853263817705 ], [ -92.981068774940468, 18.354005364817656 ], [ -92.980941707940417, 18.354181861817541 ], [ -92.980771105940391, 18.354368879817475 ], [ -92.98057699494035, 18.35453986481739 ], [ -92.980372195940319, 18.354683626817323 ], [ -92.980167779940317, 18.354792392817245 ], [ -92.979922640940259, 18.354881699817213 ], [ -92.979646819940257, 18.354944925817204 ], [ -92.979349853940221, 18.354979817817185 ], [ -92.979048638940185, 18.354984338817193 ], [ -92.978803922940187, 18.354959831817254 ], [ -92.978531703940149, 18.354904633817327 ], [ -92.978172566940088, 18.354801299817389 ], [ -92.977896529940054, 18.35470084981748 ], [ -92.977649984940086, 18.354584694817564 ], [ -92.977398870940064, 18.354441483817642 ], [ -92.977140695940065, 18.354269826817752 ], [ -92.976869914939996, 18.354066042817941 ], [ -92.976505752940028, 18.35376108881815 ], [ -92.976003308939994, 18.353307276818409 ], [ -92.975580122940016, 18.352864311818692 ], [ -92.975202836940028, 18.352380951819026 ], [ -92.974818656939959, 18.351801054819386 ], [ -92.97379169794003, 18.350014275820513 ], [ -92.972787377940023, 18.348351015821557 ], [ -92.971980506940056, 18.346938111822436 ], [ -92.970809002940086, 18.344811046823736 ], [ -92.969706420940128, 18.342917833824963 ], [ -92.96924173694012, 18.342039365825453 ], [ -92.968985653940194, 18.341480909825822 ], [ -92.968778841940178, 18.340951018826171 ], [ -92.968404247940214, 18.339837156826839 ], [ -92.968333129940234, 18.339576520826984 ], [ -92.968288355940274, 18.339344490827116 ], [ -92.968268178940264, 18.339140330827238 ], [ -92.968269128940292, 18.33894327982734 ], [ -92.968289554940284, 18.338632342827541 ], [ -92.968327202940316, 18.338404745827674 ], [ -92.968372247940366, 18.338258675827731 ], [ -92.968432533940387, 18.338135785827802 ], [ -92.968520138940363, 18.338013424827899 ], [ -92.968634216940416, 18.337893714827914 ], [ -92.968844439940398, 18.33772731482798 ], [ -92.96909918894049, 18.33757610782806 ], [ -92.969384300940533, 18.337449016828149 ], [ -92.96966088894051, 18.337363575828178 ], [ -92.969960761940555, 18.337309943828171 ] ] ] ] } },
{ "type": "Feature", "properties": { "nombre": "HOK", "comentario": null }, "bbox": [ -92.891666687167856, 18.533333302389991, -92.841666627013183, 18.583333343658925 ], "geometry": { "type": "MultiPolygon", "coordinates": [ [ [ [ -92.841666627013183, 18.566666672229189 ], [ -92.841666637805076, 18.558333290648861 ], [ -92.850000036472466, 18.558333318527893 ], [ -92.849999972620594, 18.533333302389991 ], [ -92.858333298442915, 18.533333315879872 ], [ -92.858333347905671, 18.541666634507642 ], [ -92.86666670160696, 18.541666645299479 ], [ -92.86666667822459, 18.549999958531309 ], [ -92.883333346956363, 18.549999964826544 ], [ -92.883333372137372, 18.558333366191988 ], [ -92.891666687167856, 18.558333361695372 ], [ -92.891666640403116, 18.566666666833264 ], [ -92.883333299292303, 18.566666668631925 ], [ -92.883333336164469, 18.583333343658925 ], [ -92.858333360496147, 18.583333297793502 ], [ -92.85833332632194, 18.575000016037954 ], [ -92.849999968123996, 18.574999989957647 ], [ -92.849999956432782, 18.566666702806121 ], [ -92.841666627013183, 18.566666672229189 ] ] ] ] } },
{ "type": "Feature", "properties": { "nombre": "ITLA", "comentario": null }, "bbox": [ -94.039706301629565, 18.392582034564658, -93.984817448123962, 18.448984704603891 ], "geometry": { "type": "MultiPolygon", "coordinates": [ [ [ [ -94.038114941995744, 18.422518250780094 ], [ -94.03801133611644, 18.424260743372137 ], [ -94.037219465949732, 18.425353773990746 ], [ -94.036885123616671, 18.426662044628809 ], [ -94.037235784415273, 18.428075444340223 ], [ -94.037811958963431, 18.429052129049985 ], [ -94.038271465713393, 18.42959396841994 ], [ -94.037819797632082, 18.430358530162621 ], [ -94.037022025434538, 18.430471759783362 ], [ -94.037030511592775, 18.43188702779106 ], [ -94.037716841620394, 18.432209888294892 ], [ -94.037950192777572, 18.433079574924509 ], [ -94.039092779834434, 18.43339993482428 ], [ -94.039440857386325, 18.434377861313234 ], [ -94.038192697561271, 18.435473394721164 ], [ -94.036707906302951, 18.435154899348639 ], [ -94.03522311991712, 18.434836392078243 ], [ -94.033624274820824, 18.434518494062544 ], [ -94.032137548900337, 18.433873361378769 ], [ -94.029287263164392, 18.434106579061694 ], [ -94.030659268955063, 18.434643486912208 ], [ -94.031581521706812, 18.436271533631075 ], [ -94.032382575542329, 18.436702659800687 ], [ -94.0345537197569, 18.437344059758569 ], [ -94.036498705476305, 18.438313280211943 ], [ -94.038213617610538, 18.438957127840261 ], [ -94.039706301629565, 18.440582008474717 ], [ -94.039144473199386, 18.44200039801806 ], [ -94.038469220964529, 18.443528277077963 ], [ -94.037442596584299, 18.443533893203838 ], [ -94.036076374143903, 18.443976839368759 ], [ -94.034367933967744, 18.444421641986171 ], [ -94.032660134777331, 18.444975296393025 ], [ -94.030722883299845, 18.445312441883178 ], [ -94.027302698485954, 18.445657603562982 ], [ -94.026613744110648, 18.444899239635003 ], [ -94.02603628066251, 18.443704788006361 ], [ -94.025574832711115, 18.442836318674832 ], [ -94.024659695948444, 18.44240578061768 ], [ -94.023294733703395, 18.443066370157577 ], [ -94.021133199709354, 18.444057850874486 ], [ -94.020682705291648, 18.44504011059637 ], [ -94.020454563297179, 18.445041337816992 ], [ -94.020099498098375, 18.442865834056672 ], [ -94.020091787652632, 18.441559427366748 ], [ -94.020086005240728, 18.440579622229304 ], [ -94.019968082858867, 18.43992703186704 ], [ -94.018367287288171, 18.439282404471381 ], [ -94.018139152727812, 18.439283628539872 ], [ -94.017342603725467, 18.439614512668747 ], [ -94.015518162214562, 18.439733155265426 ], [ -94.013809700574015, 18.440177773480098 ], [ -94.012551763486044, 18.439640135116601 ], [ -94.011293196994728, 18.438993620446961 ], [ -94.01037365913696, 18.437800937424864 ], [ -94.010476908870075, 18.435949580755523 ], [ -94.010587792683694, 18.435404635361849 ], [ -94.009670822644736, 18.434647417988671 ], [ -94.007729187210316, 18.434222251559799 ], [ -94.007624004674696, 18.435747005277463 ], [ -94.007743146262229, 18.436617341396939 ], [ -94.008664565456485, 18.438136641467452 ], [ -94.009923116627732, 18.438783174404289 ], [ -94.01050427160358, 18.440630887310427 ], [ -94.011316764368459, 18.443021719268433 ], [ -94.012457464078324, 18.443015635999469 ], [ -94.013025261340871, 18.442577121965854 ], [ -94.015077874740868, 18.44245728152373 ], [ -94.015538630477195, 18.443216911669627 ], [ -94.016674206740646, 18.44233986428943 ], [ -94.017476537523805, 18.442988788178457 ], [ -94.016915156942872, 18.44451598815634 ], [ -94.014406237725836, 18.444638289693241 ], [ -94.013719896122566, 18.444315345572782 ], [ -94.012583653559787, 18.445083508996067 ], [ -94.011339063414482, 18.446832081419736 ], [ -94.009972738367566, 18.447274843950954 ], [ -94.008836840586355, 18.448108306955174 ], [ -94.007815259744376, 18.448984704603891 ], [ -94.006216320454115, 18.448666579984174 ], [ -94.004837936275933, 18.447040821087956 ], [ -94.004370254735989, 18.445083618613083 ], [ -94.006190962642222, 18.44431187420361 ], [ -94.007438128204626, 18.442998804050088 ], [ -94.007092111647083, 18.442347414747243 ], [ -94.005035691141643, 18.441813962591429 ], [ -94.003204261235837, 18.440734942497219 ], [ -94.002970438558634, 18.439756338012799 ], [ -94.002848791667631, 18.438450526746017 ], [ -94.001593420634009, 18.438348284957545 ], [ -94.000568075395506, 18.438571435962487 ], [ -93.999424883319264, 18.438141974509268 ], [ -93.999775269845841, 18.439555455467001 ], [ -93.998296156356389, 18.440216469769982 ], [ -93.997713874961292, 18.438150977037761 ], [ -93.997250070152035, 18.43684695855017 ], [ -93.997355344647133, 18.435322206352506 ], [ -93.995978407539951, 18.433914108043187 ], [ -93.994476786983995, 18.430655836539778 ], [ -93.993787408085922, 18.429788474199064 ], [ -93.991506169662415, 18.429800401177776 ], [ -93.989787763968224, 18.428502907759452 ], [ -93.987721608318793, 18.426227361274844 ], [ -93.985541449104716, 18.423952381141298 ], [ -93.988484575339768, 18.42001770208768 ], [ -93.985966667605439, 18.418506582717438 ], [ -93.985051131763683, 18.41796697306852 ], [ -93.984817448123962, 18.41698833759251 ], [ -93.985262509267059, 18.415026335648133 ], [ -93.986748293466249, 18.415562984175946 ], [ -93.988239680269658, 18.41707943787776 ], [ -93.989278608395566, 18.41925146598809 ], [ -93.991115959000979, 18.421419322191205 ], [ -93.991584662003334, 18.42359430909632 ], [ -93.992389935728255, 18.424787690757981 ], [ -93.993420213895263, 18.425435533531136 ], [ -93.994098938104642, 18.424452137578651 ], [ -93.994661093769082, 18.423033863680203 ], [ -93.995342933091209, 18.422594805248604 ], [ -93.994996379812008, 18.42183452009608 ], [ -93.994196732598354, 18.421620964342999 ], [ -93.992829928399246, 18.421954728830741 ], [ -93.992368706784021, 18.42108616600969 ], [ -93.993275532417925, 18.420101581186479 ], [ -93.994299529918678, 18.419660737210052 ], [ -93.992926495242315, 18.418905817795164 ], [ -93.990987564133675, 18.418915942919693 ], [ -93.989836431546706, 18.417071124872457 ], [ -93.989025615551014, 18.414897911750295 ], [ -93.989364039125746, 18.414242918887599 ], [ -93.990172364805431, 18.415980656556851 ], [ -93.991198217366787, 18.415866435393628 ], [ -93.990963256422376, 18.414670071743522 ], [ -93.991298555243986, 18.413470733201891 ], [ -93.99198161485873, 18.413249424789417 ], [ -93.993805806025449, 18.413131020647462 ], [ -93.993914857116565, 18.412259476558337 ], [ -93.993797682414268, 18.411715730821317 ], [ -93.993560836796348, 18.410192765017339 ], [ -93.993898609671504, 18.409428896526769 ], [ -93.994921918217898, 18.408879183326547 ], [ -93.994916289178732, 18.407899367211176 ], [ -93.995368724587863, 18.407243767841436 ], [ -93.996051754085215, 18.407022446067348 ], [ -93.99754941237228, 18.409627511322633 ], [ -93.998584637870962, 18.411146276970396 ], [ -93.99927710240388, 18.412557967300167 ], [ -94.000535430636162, 18.413204574774817 ], [ -94.000882617860171, 18.414073718358324 ], [ -94.000887653244945, 18.41494466386802 ], [ -94.000321168526426, 18.415600876368181 ], [ -94.000672765750437, 18.417232097132953 ], [ -94.00226762122314, 18.416897075229105 ], [ -94.002376000418479, 18.415916660418613 ], [ -94.003628683358642, 18.415583432707983 ], [ -94.005452885213714, 18.415464915956171 ], [ -94.005346420604127, 18.416771935765297 ], [ -94.00672328663218, 18.418179971512277 ], [ -94.00786572601055, 18.418500527447183 ], [ -94.009688683263136, 18.418164232998276 ], [ -94.01094518091395, 18.418484163889232 ], [ -94.012194679391058, 18.417606540799188 ], [ -94.011391853937269, 18.416848718415771 ], [ -94.011386765148259, 18.415977775899869 ], [ -94.011836610291866, 18.414886668577843 ], [ -94.0109210200647, 18.414347186355393 ], [ -94.010005435400231, 18.413807699414399 ], [ -94.009653759789728, 18.412176499235187 ], [ -94.00873692208954, 18.411419269401833 ], [ -94.007025549682439, 18.411319475169211 ], [ -94.006347581725407, 18.412411780712269 ], [ -94.006011757620172, 18.413502272843683 ], [ -94.003847318221759, 18.413949206276225 ], [ -94.002359611185369, 18.413086088797463 ], [ -94.002011788882584, 18.412108079906442 ], [ -94.002576995449587, 18.411234126644196 ], [ -94.002457273625424, 18.410254914727147 ], [ -94.001318045460309, 18.41047866401966 ], [ -94.000744025896793, 18.409828458457479 ], [ -94.000623057673522, 18.408631508173638 ], [ -94.000955762371063, 18.406996682497777 ], [ -94.001632486802194, 18.405686658440025 ], [ -94.002079222313299, 18.404051230054744 ], [ -94.002645034484217, 18.40328614539807 ], [ -94.003782952045341, 18.40284465388482 ], [ -94.004576207977095, 18.401969491257287 ], [ -94.004109939864932, 18.400230009513134 ], [ -94.003306602182008, 18.399363277748428 ], [ -94.001594091214898, 18.399045691938337 ], [ -94.002040057836865, 18.397279621306904 ], [ -94.002482993591556, 18.394990981635726 ], [ -94.003627793024378, 18.395747044811504 ], [ -94.005571510846664, 18.396607749040587 ], [ -94.005799590058686, 18.396606542774162 ], [ -94.006025141297968, 18.396169863338546 ], [ -94.004993105521152, 18.395195476078424 ], [ -94.003619597433854, 18.394331756653244 ], [ -94.004186634543728, 18.393784405124709 ], [ -94.005091992667815, 18.392582034564658 ], [ -94.006348295335656, 18.392902006041801 ], [ -94.006924805432448, 18.393987670395347 ], [ -94.006931130299733, 18.395076352544255 ], [ -94.006934925431693, 18.395729561772878 ], [ -94.007850402763523, 18.396269069583994 ], [ -94.008198220949467, 18.397247069336156 ], [ -94.009573042557605, 18.398328489379669 ], [ -94.009804930421126, 18.398980486631512 ], [ -94.011165798884306, 18.3976667972175 ], [ -94.012757906233034, 18.396896224263205 ], [ -94.015264223980708, 18.396447373645415 ], [ -94.016750565148598, 18.397092659679327 ], [ -94.017782675522398, 18.398066979178104 ], [ -94.017102907760261, 18.398832715339172 ], [ -94.018138229568223, 18.400351371014079 ], [ -94.018032504058425, 18.401767262651308 ], [ -94.017238680705077, 18.402533610350158 ], [ -94.015868886415049, 18.402323192786561 ], [ -94.014276108278068, 18.402984925241036 ], [ -94.013370128780579, 18.404078469905599 ], [ -94.013833314930295, 18.405273583971777 ], [ -94.014638007439984, 18.406358002491579 ], [ -94.015774633469135, 18.405698704237174 ], [ -94.016804235962297, 18.406237554961958 ], [ -94.018407914934116, 18.407426551297362 ], [ -94.01818430271814, 18.408189847158727 ], [ -94.017387254227543, 18.408411857881887 ], [ -94.016585730079711, 18.407871791231482 ], [ -94.016241673671587, 18.407547017761637 ], [ -94.015788042070554, 18.407984927523415 ], [ -94.016590203529859, 18.408633865355906 ], [ -94.017508337544982, 18.409608791935558 ], [ -94.017173868345353, 18.410917035814613 ], [ -94.016725345090563, 18.412225889459776 ], [ -94.015930192534199, 18.412774498076971 ], [ -94.016960478207665, 18.41342221315854 ], [ -94.017880561379812, 18.414723738978761 ], [ -94.0185706330263, 18.415699879862899 ], [ -94.020744676641442, 18.416885792055993 ], [ -94.02177564690659, 18.41764234613002 ], [ -94.022923253143887, 18.418833749566829 ], [ -94.022585594934611, 18.419597663630316 ], [ -94.021903198484807, 18.419927948692496 ], [ -94.021457904980721, 18.421781148755205 ], [ -94.022488265165109, 18.422428829630828 ], [ -94.023289876245144, 18.422968866379353 ], [ -94.024090203542485, 18.423291164862327 ], [ -94.024313160832577, 18.422418996253437 ], [ -94.024307360953415, 18.421439190438381 ], [ -94.024643080791009, 18.420348671702257 ], [ -94.025208194196622, 18.419474656079032 ], [ -94.02531644356776, 18.418494234660336 ], [ -94.026114171270223, 18.418381056422941 ], [ -94.026577487291135, 18.419576131495372 ], [ -94.026694124675871, 18.420010984082303 ], [ -94.027495089941723, 18.420442135897417 ], [ -94.027725785109766, 18.420876370641146 ], [ -94.027616255691555, 18.421639058192138 ], [ -94.027733543914209, 18.422182777045379 ], [ -94.029326437275245, 18.421520926963865 ], [ -94.028981682352196, 18.421087312361355 ], [ -94.028294118399685, 18.420546682548206 ], [ -94.028404938236235, 18.420001729092583 ], [ -94.027828848162812, 18.419025010821318 ], [ -94.027141296129273, 18.418484376140221 ], [ -94.025766850000736, 18.417511965902573 ], [ -94.025192073005385, 18.416752972928091 ], [ -94.026216606137311, 18.416420828917374 ], [ -94.026783636841557, 18.4158734111728 ], [ -94.02723661279795, 18.415326608575089 ], [ -94.028037556982596, 18.415757759308562 ], [ -94.029414590336387, 18.417165622128739 ], [ -94.028964205869968, 18.418147898512039 ], [ -94.029312191800699, 18.419125849451845 ], [ -94.030001048708726, 18.419884210064687 ], [ -94.031255643192026, 18.419877402783417 ], [ -94.031938019786608, 18.419547084999728 ], [ -94.032274986404801, 18.418674289259215 ], [ -94.033758977997437, 18.418883960211922 ], [ -94.033996190624364, 18.420406856786336 ], [ -94.033546475534578, 18.421498009841446 ], [ -94.033438272090109, 18.422478433446624 ], [ -94.034694836984926, 18.422798203382865 ], [ -94.036519729522183, 18.422788252538599 ], [ -94.038114941995744, 18.422518250780094 ] ] ] ] } },
{ "type": "Feature", "properties": { "nombre": "PARAISO", "comentario": null }, "bbox": [ -93.163188008761992, 18.324806209487139, -93.117262773274248, 18.348726413426533 ], "geometry": { "type": "MultiPolygon", "coordinates": [ [ [ [ -93.120395736047001, 18.344486265921415 ], [ -93.119829535009487, 18.338347065264184 ], [ -93.117298461428007, 18.333954438025742 ], [ -93.117262773274248, 18.324994038912923 ], [ -93.12864480616409, 18.324806209487139 ], [ -93.139327372474781, 18.324977215760825 ], [ -93.148297399115009, 18.326275649024087 ], [ -93.153013353551458, 18.327686426554443 ], [ -93.160254234378314, 18.330759454703795 ], [ -93.162933552324233, 18.335311786598528 ], [ -93.163188008761992, 18.348029584682156 ], [ -93.135809497710653, 18.348726413426533 ], [ -93.120395736047001, 18.344486265921415 ] ] ] ] } },
{ "type": "Feature", "properties": { "nombre": "MAYACASTE", "comentario": null }, "bbox": [ -93.395272936028803, 18.371485530101623, -93.34690247225015, 18.400171938690239 ], "geometry": { "type": "MultiPolygon", "coordinates": [ [ [ [ -93.34690247225015, 18.39419872702506 ], [ -93.347854519589504, 18.388283682779242 ], [ -93.349164948529506, 18.382859097701104 ], [ -93.350306629844511, 18.37927440690407 ], [ -93.353433782319854, 18.375205076608651 ], [ -93.355960474558117, 18.373074139014708 ], [ -93.359703406431976, 18.371622373875372 ], [ -93.364967749212227, 18.371485530101623 ], [ -93.369829712022096, 18.372564161341572 ], [ -93.375098314246827, 18.374390859639327 ], [ -93.383608999990301, 18.377176856071731 ], [ -93.391922118649418, 18.382090224639118 ], [ -93.395272936028803, 18.386336863861384 ], [ -93.39508334577819, 18.391943154385171 ], [ -93.394473829466207, 18.395356248194961 ], [ -93.386553088598504, 18.398331014822705 ], [ -93.379462724818538, 18.398732805376792 ], [ -93.374602816609439, 18.398966964695479 ], [ -93.370182613305488, 18.398526573866761 ], [ -93.366037409744337, 18.398534598075869 ], [ -93.362175050222859, 18.400045590847093 ], [ -93.358058908666067, 18.399857044982785 ], [ -93.352571764878562, 18.400171938690239 ], [ -93.348271529367238, 18.398689027258438 ], [ -93.34690247225015, 18.39419872702506 ] ] ] ] } },
{ "type": "Feature", "properties": { "nombre": "TAJON", "comentario": null }, "bbox": [ -93.301988752042362, 18.399459412903699, -93.260918114660697, 18.454643278552862 ], "geometry": { "type": "MultiPolygon", "coordinates": [ [ [ [ -93.261400534825, 18.414735288745579 ], [ -93.260918114660697, 18.406216396047927 ], [ -93.265083423477463, 18.400168028350972 ], [ -93.274830242068589, 18.399459412903699 ], [ -93.283698675066574, 18.405681330306059 ], [ -93.29567400461535, 18.413005749951214 ], [ -93.301988752042362, 18.42095381294461 ], [ -93.301184797255033, 18.439443542110297 ], [ -93.296958692449934, 18.452735251822258 ], [ -93.280820359373436, 18.454643278552862 ], [ -93.268643451926209, 18.451424613341576 ], [ -93.26498040574721, 18.441753226848167 ], [ -93.263114600047146, 18.425709207458134 ], [ -93.261400534825, 18.414735288745579 ] ] ] ] } },
{ "type": "Feature", "properties": { "nombre": "CENTLI", "comentario": null }, "bbox": [ -93.790508074454067, 18.371116156306414, -93.775279524016753, 18.383013461335565 ], "geometry": { "type": "MultiPolygon", "coordinates": [ [ [ [ -93.777658985022583, 18.382537569134342 ], [ -93.777468628142117, 18.381014714090668 ], [ -93.778325234104273, 18.380158108128512 ], [ -93.779181840066371, 18.379872572807813 ], [ -93.780514338229636, 18.379872572807813 ], [ -93.781466122631969, 18.379015966845827 ], [ -93.781846836392901, 18.377778647122682 ], [ -93.7829889776757, 18.376541327399707 ], [ -93.781942014833135, 18.375970256758308 ], [ -93.779848089147947, 18.375970256758308 ], [ -93.777468628142117, 18.376065435198541 ], [ -93.775755416217976, 18.375494364557085 ], [ -93.775279524016753, 18.373590795752477 ], [ -93.777183092821474, 18.37197276226857 ], [ -93.780514338229636, 18.371496870067347 ], [ -93.785749152442406, 18.37130651318688 ], [ -93.788033435008003, 18.371116156306414 ], [ -93.790222539133424, 18.371211334746647 ], [ -93.790508074454067, 18.372067940708803 ], [ -93.790222539133424, 18.373495617312244 ], [ -93.789937003812724, 18.375779899877784 ], [ -93.789651468491911, 18.37701721960093 ], [ -93.788509327209113, 18.377778647122682 ], [ -93.788128613448237, 18.378540074644604 ], [ -93.787938256567827, 18.379301502166527 ], [ -93.788604505649459, 18.380062929688279 ], [ -93.788985219410392, 18.381395427851658 ], [ -93.788985219410392, 18.382347212253876 ], [ -93.788794862529926, 18.383013461335565 ], [ -93.787462364366661, 18.383013461335565 ], [ -93.786225044643629, 18.382823104455042 ], [ -93.784892546480251, 18.382442390694109 ], [ -93.782798620795234, 18.382347212253876 ], [ -93.779372196946838, 18.382442390694109 ], [ -93.777658985022583, 18.382537569134342 ] ] ] ] } },
{ "type": "Feature", "properties": { "nombre": "TEKUANI", "comentario": "NUEVOS CAMPOS" }, "bbox": [ -93.248055358798126, 18.559540347095094, -93.230313809621066, 18.579348366692102 ], "geometry": { "type": "MultiPolygon", "coordinates": [ [ [ [ -93.23593524967913, 18.562598742254579 ], [ -93.235976243590301, 18.562545430507043 ], [ -93.235990049758243, 18.562527269526242 ], [ -93.235997688476004, 18.562517380925385 ], [ -93.23602476301221, 18.562482331931619 ], [ -93.236045625652366, 18.562457181168213 ], [ -93.236106961034295, 18.562398029322651 ], [ -93.23616149499361, 18.562341321145084 ], [ -93.236265422839324, 18.562387061711092 ], [ -93.236304849922135, 18.562404178798261 ], [ -93.23644017801638, 18.562461901784445 ], [ -93.236564436333822, 18.562516034185592 ], [ -93.236614430984105, 18.562537488563407 ], [ -93.236694048651827, 18.562572592697393 ], [ -93.236726197131986, 18.562539225015996 ], [ -93.236748305311721, 18.562516278393446 ], [ -93.236767985960455, 18.562496876985165 ], [ -93.236825619568322, 18.562440061079542 ], [ -93.236845004696647, 18.562420950974058 ], [ -93.236851357798798, 18.562414264460472 ], [ -93.236864876553454, 18.562401710942254 ], [ -93.23690414568182, 18.562367559390623 ], [ -93.236926267653018, 18.562348320358581 ], [ -93.236957115112261, 18.562321492934018 ], [ -93.237008852363203, 18.562282653247735 ], [ -93.237013136091775, 18.562279437407142 ], [ -93.237016032055521, 18.562277263376245 ], [ -93.237067468787359, 18.562236726784761 ], [ -93.237110776294003, 18.562209150190029 ], [ -93.237125489377831, 18.562199781446225 ], [ -93.237144061555057, 18.562187955372394 ], [ -93.237183873868503, 18.562163651732931 ], [ -93.237221179640471, 18.562144067012639 ], [ -93.237244983122253, 18.562132042933115 ], [ -93.237269680327245, 18.562119567393552 ], [ -93.237305508418956, 18.562101469192044 ], [ -93.237347707126844, 18.562086365129346 ], [ -93.23736995537746, 18.562078401871759 ], [ -93.237387699887165, 18.56207205062384 ], [ -93.237434491152499, 18.562054007390259 ], [ -93.237499655513318, 18.56203434616117 ], [ -93.237501254343897, 18.562033890520127 ], [ -93.237502370828679, 18.562033572339999 ], [ -93.23756733469952, 18.56201505866602 ], [ -93.237613395374069, 18.562004987204318 ], [ -93.237635193583515, 18.561999595180225 ], [ -93.237670245195261, 18.561990924777035 ], [ -93.23770329324276, 18.561982749970753 ], [ -93.237723689290817, 18.561978177806793 ], [ -93.237806468207054, 18.561959621305903 ], [ -93.237833300095531, 18.561953606408508 ], [ -93.237840053340221, 18.561952089346164 ], [ -93.237851147023719, 18.561949379931946 ], [ -93.237907859628365, 18.561937763037122 ], [ -93.23794426486478, 18.5619303058524 ], [ -93.238037323351136, 18.561912223848026 ], [ -93.238046191357284, 18.561910548014851 ], [ -93.238050400913721, 18.561909752513088 ], [ -93.238116191293273, 18.5618967434213 ], [ -93.238158900681412, 18.561887995463394 ], [ -93.238184952522715, 18.561882659385333 ], [ -93.238229577623997, 18.561873519023095 ], [ -93.238266817154226, 18.561868293576538 ], [ -93.238324794808705, 18.561860065887061 ], [ -93.23837287665026, 18.561853242512143 ], [ -93.238439544463631, 18.561843838394623 ], [ -93.238479145167162, 18.561838269899454 ], [ -93.238522729941451, 18.561831353883633 ], [ -93.238586016513409, 18.561821427930226 ], [ -93.238643902816818, 18.561812126160191 ], [ -93.238692464836276, 18.561806107514371 ], [ -93.238742996931421, 18.561798609822461 ], [ -93.238798951699266, 18.561790307525655 ], [ -93.238848472243831, 18.561782054018977 ], [ -93.238885334050224, 18.561775524003679 ], [ -93.238906769995594, 18.561771726653717 ], [ -93.238987204506657, 18.561756633951006 ], [ -93.23901512479398, 18.561751628555044 ], [ -93.239022930371334, 18.561750075779912 ], [ -93.239035809943118, 18.561747513626585 ], [ -93.239123559816278, 18.561731579271736 ], [ -93.239224583928888, 18.561714574172754 ], [ -93.239228787571562, 18.561713866584455 ], [ -93.23923112505139, 18.561713482980906 ], [ -93.239239908730951, 18.56171204149166 ], [ -93.239338865772538, 18.561695801627422 ], [ -93.239365860908265, 18.561691725961623 ], [ -93.239415372368342, 18.56168480254172 ], [ -93.239445612915574, 18.561680290845288 ], [ -93.239483257199367, 18.561675009189798 ], [ -93.239552343837886, 18.561665042433845 ], [ -93.239609207171384, 18.561657036479005 ], [ -93.239641417368773, 18.561652501503431 ], [ -93.239658831159772, 18.561650058857538 ], [ -93.23970966982904, 18.561642927668913 ], [ -93.239765567443783, 18.561635086840454 ], [ -93.239778033524658, 18.561633231049029 ], [ -93.239799060381984, 18.561629802694029 ], [ -93.239845145649838, 18.561621459645608 ], [ -93.239873559091052, 18.561616315811307 ], [ -93.239912130224184, 18.5616093330691 ], [ -93.23997525171302, 18.561599332270703 ], [ -93.23998144500456, 18.561598351021132 ], [ -93.239991848732132, 18.56159645338721 ], [ -93.240090003989678, 18.561578414583721 ], [ -93.24014641840796, 18.561568259893988 ], [ -93.240177881956527, 18.561561702437359 ], [ -93.240198776680529, 18.561558433523373 ], [ -93.240243498741506, 18.561549201325761 ], [ -93.240308440884633, 18.561535794975612 ], [ -93.240308785359389, 18.561535723863756 ], [ -93.240309268208478, 18.561535618001983 ], [ -93.240373179621145, 18.561521605788016 ], [ -93.240419254969822, 18.561511504014732 ], [ -93.240437612688481, 18.561507348179418 ], [ -93.240459997509504, 18.561500711719475 ], [ -93.240499393499078, 18.561488154586527 ], [ -93.240533881494741, 18.561477161826247 ], [ -93.240561022296333, 18.56146851091728 ], [ -93.240587823320766, 18.561457312288042 ], [ -93.24061991272788, 18.561443903936663 ], [ -93.240654121196485, 18.561429610140806 ], [ -93.240679309655604, 18.561420248599916 ], [ -93.240701706423067, 18.561409568750378 ], [ -93.240734617431485, 18.561388360532646 ], [ -93.240764658720593, 18.561369001581056 ], [ -93.240784501008307, 18.561356214983107 ], [ -93.240788640582878, 18.561353547392741 ], [ -93.240791229460342, 18.561351758661601 ], [ -93.240801755319012, 18.561344486037683 ], [ -93.240876225026398, 18.561293032702395 ], [ -93.240924296758408, 18.561260754985881 ], [ -93.240963448840773, 18.561235455027486 ], [ -93.241001788514779, 18.561210680030001 ], [ -93.241054282720313, 18.561180069954446 ], [ -93.241074707793132, 18.561168017642956 ], [ -93.241193919031161, 18.561097674071959 ], [ -93.241243153731318, 18.561073718922444 ], [ -93.241209707412452, 18.561058060989353 ], [ -93.241204480233932, 18.561055662329238 ], [ -93.241035983975848, 18.560977822968141 ], [ -93.24100055050144, 18.560961562060015 ], [ -93.240862242675405, 18.560897665168852 ], [ -93.240795578027985, 18.56086706869894 ], [ -93.240688483718202, 18.560817586667156 ], [ -93.240591623939792, 18.560773128397557 ], [ -93.240514707308307, 18.560737586553046 ], [ -93.240389256126093, 18.560682835960563 ], [ -93.240339518424037, 18.560661048278291 ], [ -93.240190025210154, 18.560596560015767 ], [ -93.240164015177186, 18.56058530632356 ], [ -93.239995899021949, 18.560512794151634 ], [ -93.239988511637023, 18.560509598060605 ], [ -93.239888507284661, 18.560466473469091 ], [ -93.239969833902705, 18.560461806515491 ], [ -93.240009462811258, 18.560456952867696 ], [ -93.240080187004651, 18.560440700648371 ], [ -93.240105298680703, 18.560434930049269 ], [ -93.240124042723266, 18.560427616062327 ], [ -93.240216775914803, 18.560391431229789 ], [ -93.240232082962166, 18.560385300833332 ], [ -93.240247206076219, 18.560377999192099 ], [ -93.240291887135697, 18.560351617217975 ], [ -93.240326758875597, 18.560331027153211 ], [ -93.240351160320984, 18.560316619280798 ], [ -93.240386006496976, 18.560289726207429 ], [ -93.240407337253941, 18.560273263859528 ], [ -93.240420013773701, 18.56026348055309 ], [ -93.240464086605584, 18.560231719214471 ], [ -93.240507230495098, 18.560193251308988 ], [ -93.240518351067294, 18.560183335992747 ], [ -93.240540459056888, 18.560163624078371 ], [ -93.240572441131462, 18.560134683231126 ], [ -93.240587199422691, 18.560119836509557 ], [ -93.240624490670825, 18.560080486709012 ], [ -93.240659922999612, 18.560043098420465 ], [ -93.240676284128767, 18.560025834105147 ], [ -93.240715194179074, 18.559987601274713 ], [ -93.240729367417657, 18.559973674711557 ], [ -93.240735644012432, 18.559967507355509 ], [ -93.240782786723685, 18.559923155342744 ], [ -93.2408155657576, 18.559893760833518 ], [ -93.240837182158543, 18.559874376376285 ], [ -93.240880364895361, 18.559835652337028 ], [ -93.240891599646091, 18.559825708042752 ], [ -93.240898595591261, 18.559821186907811 ], [ -93.240949719086302, 18.559786750462138 ], [ -93.240996476598809, 18.559755254889012 ], [ -93.241007746774812, 18.559747663364305 ], [ -93.241023560638894, 18.559738256779269 ], [ -93.241067478880325, 18.559712132812308 ], [ -93.241101280056569, 18.559692026785058 ], [ -93.24112741634633, 18.559677525182622 ], [ -93.241158921749047, 18.559661037887736 ], [ -93.241190661172595, 18.559651412597304 ], [ -93.24122975134793, 18.559639558110632 ], [ -93.24127803257619, 18.559624434402508 ], [ -93.241321581681063, 18.559610264743981 ], [ -93.241373246531055, 18.559593454433525 ], [ -93.241397966333352, 18.55958631058553 ], [ -93.241456365798797, 18.559578342640464 ], [ -93.241500840640924, 18.559572274539789 ], [ -93.241576104010562, 18.55955932089131 ], [ -93.241604999596859, 18.559553820328972 ], [ -93.241634132178888, 18.559551888168244 ], [ -93.241710369142311, 18.559548301788311 ], [ -93.241738469849224, 18.559545950988252 ], [ -93.241795174642164, 18.559541207263919 ], [ -93.241816722523254, 18.559540347095094 ], [ -93.241831059982644, 18.559541084614978 ], [ -93.241917984067754, 18.559545555972875 ], [ -93.241988981318741, 18.559548151011711 ], [ -93.242019779413567, 18.559549571404546 ], [ -93.24203466195695, 18.559550971950387 ], [ -93.242082530961625, 18.559555476732328 ], [ -93.242110798523981, 18.55955813688638 ], [ -93.242119599890884, 18.559558955912678 ], [ -93.242187277386734, 18.559565253743358 ], [ -93.242219554397138, 18.559568257320166 ], [ -93.242263556383818, 18.559572557733304 ], [ -93.242318819394086, 18.559579685260701 ], [ -93.242341046174147, 18.55958255194713 ], [ -93.24241762888613, 18.559592429138263 ], [ -93.242418524733523, 18.559592534995659 ], [ -93.242422012459485, 18.559593081594699 ], [ -93.24249735076512, 18.559607126494143 ], [ -93.242514478658791, 18.559610319547062 ], [ -93.24257620853723, 18.559621827473279 ], [ -93.242610963430138, 18.559629235269767 ], [ -93.242656274296223, 18.559639806276209 ], [ -93.242706261408273, 18.559651468234904 ], [ -93.242736273472303, 18.559658470021645 ], [ -93.242801032065643, 18.55967520375782 ], [ -93.242817748708035, 18.559680603775291 ], [ -93.242893459576806, 18.559705060817919 ], [ -93.242900224322625, 18.559707246046287 ], [ -93.242957761790933, 18.559725653710473 ], [ -93.242983080165004, 18.559733753679893 ], [ -93.242986062986915, 18.559734707957602 ], [ -93.243067592450075, 18.559767652051619 ], [ -93.243075957363033, 18.559771203045273 ], [ -93.243153321565899, 18.559804044939426 ], [ -93.243165342615214, 18.559809147993576 ], [ -93.243240357887089, 18.559846991703637 ], [ -93.243252206971022, 18.559853227881263 ], [ -93.243328914519054, 18.559893599064424 ], [ -93.243338558796609, 18.559898674844248 ], [ -93.243417961938974, 18.559944795054832 ], [ -93.243423209045659, 18.559948031933118 ], [ -93.243484680805238, 18.559985953117405 ], [ -93.243506916688318, 18.559999670155207 ], [ -93.243508816746214, 18.560000924217491 ], [ -93.243589312964332, 18.560054052704345 ], [ -93.243654784929106, 18.560098142647917 ], [ -93.243671401633833, 18.560109089310515 ], [ -93.243692051397034, 18.560124819623923 ], [ -93.243750982510107, 18.560169711387516 ], [ -93.243795294202357, 18.560202151814565 ], [ -93.243830863582957, 18.560229410448812 ], [ -93.243882395912237, 18.56027803925258 ], [ -93.243905908382033, 18.560300226927382 ], [ -93.243921048815309, 18.560313028747601 ], [ -93.243977007961519, 18.560367320392913 ], [ -93.243980080675442, 18.560370346250693 ], [ -93.243980899157407, 18.560371152251662 ], [ -93.244028560014272, 18.560432105445784 ], [ -93.244046948394782, 18.560461933326962 ], [ -93.244072142545633, 18.560496478074469 ], [ -93.24411305423115, 18.560552573749931 ], [ -93.244117222863167, 18.560559916560578 ], [ -93.244122079570559, 18.56057154722572 ], [ -93.244168065854922, 18.560668221593914 ], [ -93.244203657466983, 18.560743043745447 ], [ -93.244222493185589, 18.560784873645673 ], [ -93.244270758120365, 18.560909894932706 ], [ -93.244271194204373, 18.560911024525808 ], [ -93.244271528851868, 18.560911891366857 ], [ -93.244300423190964, 18.560981597613136 ], [ -93.244320946738867, 18.561037840796757 ], [ -93.24433878381177, 18.561077754536427 ], [ -93.244362745329511, 18.561122539804558 ], [ -93.244376737962625, 18.561146881283094 ], [ -93.244421771429074, 18.561228901661821 ], [ -93.244434262385198, 18.561251651680777 ], [ -93.244438927729732, 18.561257883837243 ], [ -93.244453491137904, 18.561276204126898 ], [ -93.244488370306954, 18.561320739957353 ], [ -93.244500258731705, 18.56133591980921 ], [ -93.244535889849601, 18.561383517225181 ], [ -93.244565691202524, 18.56142100627352 ], [ -93.244617978438839, 18.561466050441879 ], [ -93.244639903728057, 18.561484938527826 ], [ -93.244654972053866, 18.561498905805479 ], [ -93.244713942004353, 18.561549156039177 ], [ -93.244788876201255, 18.561596419929913 ], [ -93.244793566146768, 18.561599378057679 ], [ -93.244797778985458, 18.561602110703632 ], [ -93.244873170116477, 18.561649617042576 ], [ -93.244952356059457, 18.561690996443303 ], [ -93.244955485867422, 18.561692631954372 ], [ -93.245033250451684, 18.561733268555656 ], [ -93.245037800701994, 18.561735561972853 ], [ -93.245114524885821, 18.561773097659625 ], [ -93.245120806040518, 18.561776170579833 ], [ -93.24519579117765, 18.561812855424307 ], [ -93.245203955231091, 18.561816282473899 ], [ -93.245277746565819, 18.561850616961351 ], [ -93.245287347540057, 18.561855084210663 ], [ -93.245359819653686, 18.561888804828243 ], [ -93.245371070781971, 18.561892898081965 ], [ -93.24544224798808, 18.561922638973158 ], [ -93.245455538473323, 18.561928192304094 ], [ -93.245524878971366, 18.561957165696867 ], [ -93.245540528068261, 18.561961954463413 ], [ -93.245607482691753, 18.561984719159284 ], [ -93.245627084166813, 18.56199138369152 ], [ -93.245690369531928, 18.562012900797129 ], [ -93.24571432833244, 18.56201864959678 ], [ -93.245772778497326, 18.562032443948738 ], [ -93.245804077901994, 18.562039830660467 ], [ -93.24585559377357, 18.562051988479197 ], [ -93.245894981880383, 18.562057400336641 ], [ -93.245937186866854, 18.562062122435634 ], [ -93.245988904276317, 18.562067908817482 ], [ -93.246019306609071, 18.562071310363535 ], [ -93.246085961010692, 18.562070359172424 ], [ -93.24609960177537, 18.562070275805524 ], [ -93.246164648259878, 18.562069878254533 ], [ -93.2461806195588, 18.562069780637501 ], [ -93.24618429061843, 18.562069035742695 ], [ -93.246258904735271, 18.562053895770077 ], [ -93.246291713588164, 18.562047238505784 ], [ -93.246337944373124, 18.562040731998991 ], [ -93.246403435292052, 18.562013438362158 ], [ -93.246412568286303, 18.562009632142974 ], [ -93.246428096694103, 18.56200316060324 ], [ -93.246486337113993, 18.5619816398181 ], [ -93.246517625270144, 18.561972584870887 ], [ -93.246563563791653, 18.561963615250818 ], [ -93.246621063678901, 18.561952388226018 ], [ -93.246692095107676, 18.561936309676128 ], [ -93.24671675328841, 18.561930434987289 ], [ -93.246726388319928, 18.561928139488032 ], [ -93.246744817733543, 18.561924886237023 ], [ -93.246826991667604, 18.561909898912063 ], [ -93.246890623576689, 18.561898878140028 ], [ -93.246919749260883, 18.56189383368968 ], [ -93.24699219282968, 18.561880827900325 ], [ -93.247088745313022, 18.561864557075467 ], [ -93.247038859084569, 18.561791514163133 ], [ -93.247022815054436, 18.561768018535304 ], [ -93.246969381375379, 18.561689796689052 ], [ -93.246935602141377, 18.561640360182253 ], [ -93.246897874230797, 18.561585106942573 ], [ -93.246859900226809, 18.561529475846726 ], [ -93.246825271843875, 18.561478817511784 ], [ -93.246801599558239, 18.561444210673699 ], [ -93.24675135879852, 18.56137057699658 ], [ -93.246697761494318, 18.561292021725308 ], [ -93.246678851611478, 18.561264369835101 ], [ -93.246663849635922, 18.561242467676436 ], [ -93.246602892081171, 18.561153125478654 ], [ -93.246591048460004, 18.561136000543229 ], [ -93.24652449998888, 18.561039397372781 ], [ -93.246457920289629, 18.560942725310213 ], [ -93.246452122761298, 18.56093435106709 ], [ -93.246446786851266, 18.560926675521159 ], [ -93.246372132562385, 18.560818102354744 ], [ -93.24631656968819, 18.56073725824092 ], [ -93.246402489144089, 18.560745626243204 ], [ -93.246426277929856, 18.56074794340708 ], [ -93.246512207478872, 18.560756313410991 ], [ -93.246612366597731, 18.56075560895033 ], [ -93.246617841213663, 18.560755406086287 ], [ -93.246644505276095, 18.560755382894342 ], [ -93.246725158973163, 18.56075395549783 ], [ -93.246799452342032, 18.560742077024145 ], [ -93.246838790383833, 18.560735787407339 ], [ -93.246884977535103, 18.560728402700079 ], [ -93.24694846325508, 18.560730682132373 ], [ -93.247049378496058, 18.560707775985691 ], [ -93.247066884806486, 18.56070367530873 ], [ -93.247079847688099, 18.560700416893724 ], [ -93.247190817504475, 18.560672522922289 ], [ -93.247240959638475, 18.560672375265824 ], [ -93.247304140353151, 18.560665114783319 ], [ -93.247334040726912, 18.560661678740757 ], [ -93.247420744515296, 18.5606517150282 ], [ -93.247527901339595, 18.56065763781902 ], [ -93.24752919361481, 18.560657764114808 ], [ -93.247530438823162, 18.560657829804825 ], [ -93.247550987966349, 18.560658913859072 ], [ -93.247637221005618, 18.560664675376927 ], [ -93.247641056062378, 18.56066519125136 ], [ -93.247742561626922, 18.560678845293921 ], [ -93.247743601700734, 18.560678997539583 ], [ -93.247782025521758, 18.560684153772741 ], [ -93.247847609030771, 18.560693604798473 ], [ -93.248026671803188, 18.560725049822452 ], [ -93.248054744241813, 18.56073040513013 ], [ -93.248055358798126, 18.560731095020401 ], [ -93.24796717051629, 18.56091514017038 ], [ -93.247868709738782, 18.561118643085535 ], [ -93.247765233320251, 18.561324940125246 ], [ -93.247657354660817, 18.561535132039921 ], [ -93.247547053394953, 18.561747749635117 ], [ -93.24743511112257, 18.561964028568752 ], [ -93.247330126559575, 18.562182883171431 ], [ -93.24734378796029, 18.56218005635867 ], [ -93.247278195419312, 18.562388684567793 ], [ -93.247207802341904, 18.562597800418132 ], [ -93.24714073501093, 18.562801106658071 ], [ -93.247076180167937, 18.562997922400257 ], [ -93.24701517221564, 18.563186253260312 ], [ -93.246957746969031, 18.56336593497781 ], [ -93.246927950075985, 18.563444786426544 ], [ -93.246864777057908, 18.56363686325659 ], [ -93.246808757792223, 18.563797657253019 ], [ -93.24678776409479, 18.563856683976212 ], [ -93.246753813567409, 18.563952140643494 ], [ -93.246699788740784, 18.564099302731563 ], [ -93.246645015097101, 18.564241589058099 ], [ -93.24658944122217, 18.564378172521003 ], [ -93.246531367839282, 18.564510418340831 ], [ -93.246460929908494, 18.564643378780318 ], [ -93.246401167605029, 18.564768693343467 ], [ -93.246339770652241, 18.564892264418461 ], [ -93.246277322785204, 18.565015044728455 ], [ -93.246214244235603, 18.565137577132759 ], [ -93.2461507415033, 18.565260355341877 ], [ -93.246089310720265, 18.565383400403107 ], [ -93.246029121257095, 18.565506452055558 ], [ -93.245976835294925, 18.56562819949221 ], [ -93.245952150376638, 18.565741914718217 ], [ -93.245931171652728, 18.565856051511958 ], [ -93.24587735332409, 18.565983607743988 ], [ -93.245845707032004, 18.566102650633184 ], [ -93.245813773401551, 18.5662221679151 ], [ -93.245781634474099, 18.56634249739659 ], [ -93.245748614259469, 18.566463821800085 ], [ -93.245715176358374, 18.566585208427568 ], [ -93.245681706420271, 18.566707087878115 ], [ -93.245647972445283, 18.566829401131713 ], [ -93.245613274438142, 18.56695229993926 ], [ -93.245578705914113, 18.567075499224018 ], [ -93.245546423938322, 18.567191507429868 ], [ -93.245513983213016, 18.567308645691298 ], [ -93.245479634558706, 18.567427352709728 ], [ -93.245443823944413, 18.567547682447696 ], [ -93.245394844918678, 18.567672113033723 ], [ -93.245393328845466, 18.56767597417695 ], [ -93.245356514386799, 18.567797969039873 ], [ -93.245317820047148, 18.567919078712919 ], [ -93.24527636845238, 18.568042793591474 ], [ -93.245254324655889, 18.568171840531704 ], [ -93.245207033773056, 18.56830480132129 ], [ -93.245156241637574, 18.56844147146262 ], [ -93.245071057416112, 18.568584845428632 ], [ -93.245064456484045, 18.568595915650178 ], [ -93.244998242271777, 18.568719753128221 ], [ -93.244935618781597, 18.568861224040745 ], [ -93.244867739949427, 18.569006303723029 ], [ -93.244795912388724, 18.569154843830916 ], [ -93.244720384981804, 18.569306740258753 ], [ -93.24464144680627, 18.569461722866322 ], [ -93.244552418148658, 18.569618195883265 ], [ -93.244540906613736, 18.56963874053406 ], [ -93.244458775622832, 18.569799407198559 ], [ -93.244374804570441, 18.569963395719071 ], [ -93.244289130876325, 18.570130600369225 ], [ -93.244200972424323, 18.570300735491912 ], [ -93.244105989279149, 18.570471328657447 ], [ -93.244009455820333, 18.570644753402973 ], [ -93.243914120639943, 18.57082153212923 ], [ -93.243907981582254, 18.570832733749626 ], [ -93.243809437564778, 18.571013130179892 ], [ -93.243708845673495, 18.571195268223903 ], [ -93.243603986049607, 18.571376985417714 ], [ -93.243495377556087, 18.571557355974619 ], [ -93.243372323445556, 18.571730214732497 ], [ -93.243367642081807, 18.57173678669767 ], [ -93.243237204380023, 18.571906977719664 ], [ -93.24309999627485, 18.572070936320529 ], [ -93.242958203547801, 18.572228717555902 ], [ -93.242811930390303, 18.57237576127568 ], [ -93.242645290164774, 18.572502934215379 ], [ -93.242623224677118, 18.572519826068799 ], [ -93.242466947788955, 18.572649874966885 ], [ -93.242307994329678, 18.572772258347641 ], [ -93.242136395565694, 18.572876264170077 ], [ -93.24211107278245, 18.572891725770603 ], [ -93.241951204554539, 18.573004806391907 ], [ -93.24179559564692, 18.57310879215504 ], [ -93.241638676375544, 18.573206023015189 ], [ -93.241605274557514, 18.573226197320594 ], [ -93.241455392350986, 18.573329320372068 ], [ -93.241310802816486, 18.573426907868338 ], [ -93.241193601002749, 18.573544269177489 ], [ -93.241153304353702, 18.573574341122935 ], [ -93.241021365491633, 18.573675485311981 ], [ -93.240903146220205, 18.57379359490551 ], [ -93.24086472477677, 18.573831900806738 ], [ -93.240747288219097, 18.573948675166321 ], [ -93.24063486659486, 18.57407303791291 ], [ -93.240532305652323, 18.574214155857817 ], [ -93.240498994499774, 18.574259980404975 ], [ -93.240391500539886, 18.574394332735494 ], [ -93.240287774481033, 18.574537488566364 ], [ -93.240254028220647, 18.574584030462916 ], [ -93.240145453372691, 18.574720873563479 ], [ -93.240036213221742, 18.574858430631252 ], [ -93.240000516866473, 18.574903363099338 ], [ -93.239889242863569, 18.575039458159495 ], [ -93.239777653152998, 18.575174651580767 ], [ -93.239741005226563, 18.575219181748594 ], [ -93.23963012659982, 18.575353178200032 ], [ -93.23951609196348, 18.575495999814677 ], [ -93.239400822411369, 18.575634636768143 ], [ -93.23937006290231, 18.575671644997669 ], [ -93.239255885213424, 18.575813335324881 ], [ -93.23913805068247, 18.575940581511077 ], [ -93.239106529221829, 18.575974610428375 ], [ -93.238990197311068, 18.576103692169795 ], [ -93.238873179891129, 18.57622786193474 ], [ -93.238752114901899, 18.576331306633392 ], [ -93.238719088842402, 18.576359460118624 ], [ -93.238598906530115, 18.576473445657712 ], [ -93.238445212610202, 18.576493226960849 ], [ -93.238344792759392, 18.576499148050459 ], [ -93.238189635131391, 18.576508654760005 ], [ -93.238088065887609, 18.576519439972003 ], [ -93.237937194923632, 18.576536197535688 ], [ -93.237834381961761, 18.576553108273231 ], [ -93.237685883188192, 18.576579554338991 ], [ -93.23757952656473, 18.576604837018238 ], [ -93.237435970566764, 18.576640556943232 ], [ -93.237305536299743, 18.576695945110657 ], [ -93.237192229318339, 18.576736962450582 ], [ -93.237065285323581, 18.576784859162103 ], [ -93.236946881259939, 18.576836460186541 ], [ -93.236829088127877, 18.576890148343921 ], [ -93.236707629611203, 18.576952881038835 ], [ -93.23660062709024, 18.577009778066213 ], [ -93.236471090099883, 18.577072568395238 ], [ -93.236341868641603, 18.577151176414702 ], [ -93.236241607319982, 18.577213258725749 ], [ -93.236110707198122, 18.577297399994961 ], [ -93.236014211120789, 18.577359609426367 ], [ -93.235882917861943, 18.57744324905741 ], [ -93.235786398727043, 18.577505676761859 ], [ -93.235655533016484, 18.577590009096923 ], [ -93.235558848290111, 18.577652787635031 ], [ -93.235428869661632, 18.577741842527018 ], [ -93.235331220221212, 18.577807477528268 ], [ -93.235199245469801, 18.577884251084299 ], [ -93.235079452314778, 18.577961245844222 ], [ -93.235070386619725, 18.577967072646345 ], [ -93.234969593347273, 18.578031738583832 ], [ -93.234841230658844, 18.578110628348611 ], [ -93.23473692982202, 18.578173869733916 ], [ -93.234609785220243, 18.578250632164099 ], [ -93.234502029721568, 18.578313441198702 ], [ -93.234374785333102, 18.578390518166941 ], [ -93.234266115239507, 18.578455482602237 ], [ -93.234138973382528, 18.578530516958722 ], [ -93.234028459233855, 18.578595687352959 ], [ -93.233901531366541, 18.578672915268214 ], [ -93.233791272515475, 18.578740742746049 ], [ -93.233664142271664, 18.578816373779432 ], [ -93.233553268371907, 18.578882299832685 ], [ -93.233425692613423, 18.578957294630925 ], [ -93.233320805682183, 18.57902044567021 ], [ -93.233189817552159, 18.579097587704098 ], [ -93.233089853886099, 18.579158763391206 ], [ -93.232957582205358, 18.579239667764909 ], [ -93.232824069178321, 18.579325292147303 ], [ -93.232788216090455, 18.579348366692102 ], [ -93.232760860967062, 18.579335504868482 ], [ -93.23270188888489, 18.579297561927945 ], [ -93.232695699926126, 18.579292008549032 ], [ -93.232645099573517, 18.579246604616515 ], [ -93.232617422406292, 18.57922709761408 ], [ -93.23257854946587, 18.579199699761944 ], [ -93.23253319783862, 18.579167735675981 ], [ -93.232511939409562, 18.57915190546521 ], [ -93.232499684945537, 18.579141098380603 ], [ -93.23244657041613, 18.579090270218273 ], [ -93.2323826737844, 18.579029124019257 ], [ -93.232381618593536, 18.579028114248331 ], [ -93.232381021686933, 18.579027127238533 ], [ -93.232331478465937, 18.578945205412424 ], [ -93.232314830218002, 18.578917676804394 ], [ -93.23230097626498, 18.578882802194016 ], [ -93.232287219094303, 18.578848171198672 ], [ -93.232244779958023, 18.578800577696768 ], [ -93.232222442867283, 18.578775527681728 ], [ -93.232199782949124, 18.578729350017909 ], [ -93.23216061530411, 18.578695460681388 ], [ -93.232147718162707, 18.578685996089462 ], [ -93.232103577350188, 18.578653603255077 ], [ -93.23209031390013, 18.578644395642641 ], [ -93.232086559896231, 18.578642426616284 ], [ -93.232081146114297, 18.578638870978864 ], [ -93.232011109777545, 18.578592872826391 ], [ -93.231966987260193, 18.578564274966823 ], [ -93.231933969255522, 18.578542853721956 ], [ -93.231904022542665, 18.578523440328411 ], [ -93.23185691810977, 18.578492904173629 ], [ -93.231807533058259, 18.578449133588606 ], [ -93.23178353393547, 18.578427862854824 ], [ -93.231733856179687, 18.578387830636586 ], [ -93.231709371232228, 18.578365342425627 ], [ -93.231649206635893, 18.578287144736066 ], [ -93.231642561239937, 18.578278321986772 ], [ -93.231603532395127, 18.578226505380314 ], [ -93.231575946727617, 18.578189881272124 ], [ -93.231563952411136, 18.578170133443336 ], [ -93.23155113357376, 18.578144883044558 ], [ -93.231531559842438, 18.578109386399831 ], [ -93.231515566197686, 18.578080382171834 ], [ -93.231497038556711, 18.57804987762097 ], [ -93.231477237282206, 18.578010873228379 ], [ -93.231465521431687, 18.57798851549029 ], [ -93.231455533637529, 18.577969455453399 ], [ -93.231434116667856, 18.577926646409082 ], [ -93.231415553592228, 18.577880533871792 ], [ -93.231399238218103, 18.577844246017662 ], [ -93.23135749860927, 18.577751410751091 ], [ -93.231350718191436, 18.577734578900504 ], [ -93.231343586091384, 18.57771687402311 ], [ -93.231308545966101, 18.577625067451891 ], [ -93.231290682239319, 18.577578263710905 ], [ -93.231260415896827, 18.577498964513666 ], [ -93.231238185928532, 18.577438106461386 ], [ -93.231214685722421, 18.577373523187362 ], [ -93.231186006340238, 18.577294706428518 ], [ -93.23116905860627, 18.577248130581211 ], [ -93.231132401388948, 18.577154864421402 ], [ -93.231119706805941, 18.577121130027479 ], [ -93.231078949397215, 18.577012821803919 ], [ -93.2310722469594, 18.576995010816233 ], [ -93.231023817831954, 18.576874999708878 ], [ -93.231020812522161, 18.576867243407492 ], [ -93.230994027268764, 18.576798114230598 ], [ -93.23097178082196, 18.576740699063578 ], [ -93.2309691293367, 18.576734687613396 ], [ -93.230914518684074, 18.576610874187054 ], [ -93.230911200522769, 18.576603351236088 ], [ -93.230873874076053, 18.576530106978112 ], [ -93.230849489767252, 18.576482258543422 ], [ -93.230846906190322, 18.576477188883302 ], [ -93.230784104292525, 18.576371753981789 ], [ -93.230760129576993, 18.576336052123622 ], [ -93.23071566719841, 18.57626984109055 ], [ -93.230662679147486, 18.576190933992962 ], [ -93.230647158244494, 18.576168171283541 ], [ -93.230599808077613, 18.576089886717341 ], [ -93.230580850487456, 18.57606035158318 ], [ -93.230574141037323, 18.576049898536951 ], [ -93.230513518410135, 18.575955450917434 ], [ -93.230492397500484, 18.575911774430267 ], [ -93.230455952322302, 18.57582327521078 ], [ -93.230440657584836, 18.575786135224746 ], [ -93.230417163669301, 18.575740325577158 ], [ -93.230399864948538, 18.575687078977978 ], [ -93.230395440398468, 18.575672729198686 ], [ -93.230392082376625, 18.57566183840089 ], [ -93.230375276387122, 18.575604643098188 ], [ -93.230364706442742, 18.575547554265881 ], [ -93.230353077581412, 18.575500951738888 ], [ -93.230336004946821, 18.575432533304195 ], [ -93.230327964370701, 18.575359248664881 ], [ -93.230324106756029, 18.575324088982086 ], [ -93.230319534277896, 18.57528241375951 ], [ -93.23031566179759, 18.575237544917343 ], [ -93.230313809621066, 18.575216084499232 ], [ -93.23031721183628, 18.575174379574548 ], [ -93.230319943880829, 18.57511404031635 ], [ -93.230321337669807, 18.575083257424524 ], [ -93.230324590126884, 18.575011424390084 ], [ -93.230331053885834, 18.574973895046867 ], [ -93.230339816853416, 18.574923016202661 ], [ -93.230341487370822, 18.574913316974005 ], [ -93.230343944817605, 18.574899048735347 ], [ -93.230357092505699, 18.574814711433248 ], [ -93.230369844515906, 18.574757293274445 ], [ -93.230378537921354, 18.574718149672663 ], [ -93.230389007365432, 18.574672438359016 ], [ -93.230400229785403, 18.574621681750841 ], [ -93.23041575165314, 18.574554986714134 ], [ -93.230422673378087, 18.574525245128427 ], [ -93.230441605623469, 18.574443896133857 ], [ -93.230445568294783, 18.574428984821509 ], [ -93.230448772379361, 18.574416747972805 ], [ -93.230470631318724, 18.574333265565713 ], [ -93.230479458692059, 18.574299552544687 ], [ -93.230492784585522, 18.574244083672909 ], [ -93.230494465139316, 18.574237088384962 ], [ -93.230497207300402, 18.574229347526341 ], [ -93.230523537337319, 18.574142677592761 ], [ -93.230546639772399, 18.574066631802964 ], [ -93.230552262435992, 18.574048123791329 ], [ -93.230560340318959, 18.574030822550867 ], [ -93.230587566631016, 18.573955927057852 ], [ -93.230594432345754, 18.573937040497299 ], [ -93.230621315523649, 18.573863088830478 ], [ -93.230629619893477, 18.573845712910725 ], [ -93.230659773207094, 18.573771896991332 ], [ -93.230665961724014, 18.573756747368805 ], [ -93.230697203236673, 18.573680267429779 ], [ -93.230702616939766, 18.57366842001926 ], [ -93.230734412237723, 18.573588286916788 ], [ -93.230738565497404, 18.573577819526975 ], [ -93.230771013465812, 18.573496041418593 ], [ -93.230774627226538, 18.573487416634862 ], [ -93.230808283560521, 18.573403758656582 ], [ -93.230810973184077, 18.573397073181127 ], [ -93.230845435683079, 18.573311411258373 ], [ -93.230847352859712, 18.573306773350907 ], [ -93.230883743176946, 18.573219117002964 ], [ -93.230904767113941, 18.57316847487408 ], [ -93.230921448556558, 18.573128051418564 ], [ -93.230921974797582, 18.573126789095681 ], [ -93.230922554882284, 18.573125423774854 ], [ -93.230961183065688, 18.573034506199861 ], [ -93.230963570351776, 18.573029036692901 ], [ -93.231000489092992, 18.572942243023022 ], [ -93.231004438279058, 18.572932703394031 ], [ -93.231038956214149, 18.572849322038167 ], [ -93.231071340659469, 18.572771094250697 ], [ -93.231077388058509, 18.572756368237435 ], [ -93.231091952883503, 18.57271514772367 ], [ -93.23110626321801, 18.572674647454051 ], [ -93.231111011616235, 18.572661208808086 ], [ -93.231140759781056, 18.572577017197261 ], [ -93.231144488451946, 18.57256598613003 ], [ -93.231170688128486, 18.572481308765362 ], [ -93.231174741071698, 18.572468209643546 ], [ -93.231200151996745, 18.572386081428931 ], [ -93.231204224409282, 18.572370279104859 ], [ -93.231231433832249, 18.572280387473995 ], [ -93.231234343396295, 18.572270775156312 ], [ -93.231263164349571, 18.572175559404229 ], [ -93.231264202230818, 18.572171194941291 ], [ -93.231298339667262, 18.572078671213262 ], [ -93.231300244813497, 18.572073507634684 ], [ -93.231333944042149, 18.571982171485558 ], [ -93.231335836111157, 18.571975666322942 ], [ -93.231338498118589, 18.571969395145913 ], [ -93.231376680584276, 18.571879444555123 ], [ -93.231410091804662, 18.571800734022816 ], [ -93.231416730076376, 18.571782989186488 ], [ -93.231425795043265, 18.571763315109365 ], [ -93.231460652852377, 18.571687661701731 ], [ -93.231489100304941, 18.571625920913789 ], [ -93.231504109456012, 18.57159234805124 ], [ -93.231524984683972, 18.571550502233947 ], [ -93.231551100701836, 18.571498150864102 ], [ -93.231570950785226, 18.571458359971245 ], [ -93.231599194079649, 18.571404796049592 ], [ -93.231613710236388, 18.571379928726969 ], [ -93.231652537935304, 18.571313413772373 ], [ -93.231657814599544, 18.57130437441981 ], [ -93.231681395569638, 18.571265613252876 ], [ -93.231702363210843, 18.571231147722358 ], [ -93.231707182015214, 18.571223226817381 ], [ -93.231748585084119, 18.571161655809362 ], [ -93.231767104436926, 18.571135317077619 ], [ -93.231795444065426, 18.571095011661384 ], [ -93.231828179995944, 18.571048453671892 ], [ -93.231842355258493, 18.571028266316659 ], [ -93.231886770530934, 18.57096841083893 ], [ -93.231889975727483, 18.570964213732282 ], [ -93.231891080900311, 18.570962766542152 ], [ -93.231938032431515, 18.57090128491933 ], [ -93.231955666165447, 18.570878354589013 ], [ -93.231985635012848, 18.570838035630516 ], [ -93.23201864095779, 18.570793630648268 ], [ -93.232075368780045, 18.570719840427728 ], [ -93.232082886214187, 18.570710176672776 ], [ -93.232127599364333, 18.570647352665276 ], [ -93.232144851620944, 18.570626023654711 ], [ -93.232175780904697, 18.570587785682108 ], [ -93.232210798673123, 18.57054449307617 ], [ -93.232223193623497, 18.570525863562409 ], [ -93.232258366053998, 18.570488271432112 ], [ -93.232278396168454, 18.570464685684726 ], [ -93.232292818226483, 18.570448986692384 ], [ -93.23234777870141, 18.570386316923646 ], [ -93.232370652032898, 18.570359367559661 ], [ -93.232414655015589, 18.57030752320469 ], [ -93.232428209915554, 18.570295112424731 ], [ -93.232472157621373, 18.570260412612868 ], [ -93.232499217801092, 18.570239046681081 ], [ -93.232567875539758, 18.570185200010656 ], [ -93.232583561873696, 18.570171763761039 ], [ -93.232609907653227, 18.570152319586384 ], [ -93.232669218496824, 18.570105922508219 ], [ -93.232715321694059, 18.570055666998599 ], [ -93.232739489967798, 18.570032800400725 ], [ -93.232784690091421, 18.570002168937322 ], [ -93.232829505626341, 18.56997179808252 ], [ -93.232859057714336, 18.569936742514301 ], [ -93.232889638701124, 18.569895236716548 ], [ -93.232906325954332, 18.569877232348631 ], [ -93.232951633213759, 18.569820190984615 ], [ -93.232968832905726, 18.569773259430349 ], [ -93.23298491736989, 18.569729370893072 ], [ -93.233010546566618, 18.569683266004461 ], [ -93.233025144296334, 18.569643140746507 ], [ -93.233032425163969, 18.569579047660454 ], [ -93.233036825443207, 18.569540312217157 ], [ -93.233043180389984, 18.569517373486065 ], [ -93.23304807633275, 18.569441271109042 ], [ -93.233047657923294, 18.569436954178059 ], [ -93.233024521836114, 18.569369827959349 ], [ -93.233003390089152, 18.569301293173851 ], [ -93.233002925049618, 18.569299868035785 ], [ -93.233002460192949, 18.569298443457853 ], [ -93.232979314856152, 18.569231290288258 ], [ -93.232958174662826, 18.569162727987134 ], [ -93.232957467822757, 18.569160047088303 ], [ -93.232943539245184, 18.569089766417392 ], [ -93.232942620480173, 18.569039887987287 ], [ -93.232934442034605, 18.568974643555066 ], [ -93.232927953263584, 18.568941902528252 ], [ -93.232927542480638, 18.568919601578216 ], [ -93.23293255826627, 18.568864261068768 ], [ -93.232937037185366, 18.568814843924599 ], [ -93.232936964354849, 18.568787063483569 ], [ -93.232946284708134, 18.568709955896054 ], [ -93.232951545080539, 18.568691628281272 ], [ -93.232972668001707, 18.568625022577692 ], [ -93.232975003940908, 18.568618543477442 ], [ -93.232999644770473, 18.56854177624308 ], [ -93.233004232976782, 18.568527481914884 ], [ -93.233038572109763, 18.56845592211431 ], [ -93.233044581364652, 18.568444451492724 ], [ -93.233049597664206, 18.568433961592746 ], [ -93.233084402751956, 18.568361178442046 ], [ -93.233118929766647, 18.568304622073356 ], [ -93.233130722182125, 18.568286392100617 ], [ -93.233132549027459, 18.56828356796791 ], [ -93.233173549414744, 18.568220185159703 ], [ -93.233181048121367, 18.568206864720196 ], [ -93.233191452367976, 18.568190789000255 ], [ -93.233231293479719, 18.568129230011436 ], [ -93.233246543609255, 18.568106546871775 ], [ -93.233281245390344, 18.568053117759973 ], [ -93.233305254723973, 18.568018606700207 ], [ -93.233332919369559, 18.567978841467323 ], [ -93.233372239956793, 18.567930856274415 ], [ -93.233385891171736, 18.567911844411071 ], [ -93.233423862346797, 18.567879841647084 ], [ -93.233450784711124, 18.567857130794835 ], [ -93.233464691462018, 18.56784536907918 ], [ -93.233512899757045, 18.567804596612177 ], [ -93.233559141088506, 18.56776682613031 ], [ -93.233584890813631, 18.567754725479347 ], [ -93.233613923146436, 18.567722080908027 ], [ -93.233639886142441, 18.567700977129221 ], [ -93.233661918170299, 18.567692673136321 ], [ -93.23367015175063, 18.567689569853712 ], [ -93.233690428088266, 18.567675337399237 ], [ -93.233708755766429, 18.567666799222138 ], [ -93.233720893333441, 18.567650575301968 ], [ -93.233739396120939, 18.567625843175904 ], [ -93.233771486012927, 18.567599106560351 ], [ -93.233775787520528, 18.567593675152295 ], [ -93.233802289551761, 18.567556395177121 ], [ -93.233802823604378, 18.567555643933758 ], [ -93.23380325877946, 18.567555031779875 ], [ -93.233806170900152, 18.567552178123378 ], [ -93.233836785117546, 18.567522178512036 ], [ -93.233843748614674, 18.56751535481061 ], [ -93.233868411303035, 18.567484262521361 ], [ -93.233885739632228, 18.567472879333081 ], [ -93.233907014558667, 18.56745890357297 ], [ -93.233939321601554, 18.567437680671503 ], [ -93.233945090184477, 18.567432336256445 ], [ -93.233963693456644, 18.56741791840858 ], [ -93.233982244404899, 18.567403201940692 ], [ -93.233988446787407, 18.567398281589476 ], [ -93.234003734245107, 18.567388182953039 ], [ -93.234040602254652, 18.567360803678923 ], [ -93.234074794365029, 18.567328752503499 ], [ -93.234086166991176, 18.567318091968843 ], [ -93.234112644120273, 18.567296852089612 ], [ -93.234136884211807, 18.567278438161111 ], [ -93.234146475915168, 18.567268407156291 ], [ -93.234176689202513, 18.567231405994164 ], [ -93.234199391215213, 18.567208832519896 ], [ -93.234221173826029, 18.567187173233606 ], [ -93.234247041666436, 18.567149475474878 ], [ -93.234254434462343, 18.567135628229266 ], [ -93.234261806229199, 18.567125291028447 ], [ -93.234290130873774, 18.567085572240387 ], [ -93.234312369119948, 18.56703282212942 ], [ -93.234313800890902, 18.567027877635553 ], [ -93.234336061965678, 18.56697517154771 ], [ -93.234338027402373, 18.566970518110793 ], [ -93.234347250143855, 18.56691854558494 ], [ -93.234347715282752, 18.566904112252359 ], [ -93.234354265372815, 18.566862279952602 ], [ -93.234358052815878, 18.566838091351769 ], [ -93.234357063400751, 18.56680638457874 ], [ -93.234349126135953, 18.566760421658557 ], [ -93.234348515737565, 18.566751532006833 ], [ -93.234346842961145, 18.566727170212118 ], [ -93.234345874062058, 18.566696120800373 ], [ -93.234343943271597, 18.566684940015534 ], [ -93.234329096786837, 18.566635894010233 ], [ -93.234317210543395, 18.566596627268382 ], [ -93.234315254217904, 18.566587714694435 ], [ -93.234310301300866, 18.566573802265168 ], [ -93.234287528022776, 18.566506621446024 ], [ -93.234262524076485, 18.566445608783056 ], [ -93.234254635669572, 18.566426360103208 ], [ -93.234248516051707, 18.566411427482024 ], [ -93.23423210264923, 18.566372803127649 ], [ -93.23421223630163, 18.566322900365947 ], [ -93.234210731344604, 18.56631699920456 ], [ -93.23419938692939, 18.566264493782512 ], [ -93.234198201098593, 18.566238312610267 ], [ -93.234187378278534, 18.566172098645097 ], [ -93.234185301716309, 18.566159394239946 ], [ -93.234184843768958, 18.566154384527124 ], [ -93.234187608103582, 18.566129520079357 ], [ -93.23419004306237, 18.566097980547852 ], [ -93.234190543824127, 18.566091494280158 ], [ -93.234186065576125, 18.56604250448072 ], [ -93.234188658935182, 18.56601917789601 ], [ -93.234195833498688, 18.565985499116039 ], [ -93.234202130909807, 18.565955937847036 ], [ -93.234202762012387, 18.565928669457037 ], [ -93.234211679932002, 18.565890250749533 ], [ -93.234218463457751, 18.565870819432178 ], [ -93.234232422432115, 18.565830834125393 ], [ -93.234235036113091, 18.565812585567699 ], [ -93.234250173279804, 18.56576955674791 ], [ -93.234269501586766, 18.565731703327742 ], [ -93.234278592490625, 18.565713899288994 ], [ -93.234283513982177, 18.565693660335683 ], [ -93.234302299959836, 18.565655331342953 ], [ -93.234315979878033, 18.565632731046719 ], [ -93.2343350599117, 18.565601209325109 ], [ -93.234344988061707, 18.565571613952557 ], [ -93.234361308323457, 18.565543066015607 ], [ -93.234375954247582, 18.565522488706279 ], [ -93.234398736076287, 18.565490480557969 ], [ -93.234418356561889, 18.565445983940378 ], [ -93.234427337679222, 18.565432465623815 ], [ -93.234434642287624, 18.565423734961541 ], [ -93.234465432752188, 18.565386933366199 ], [ -93.234469722182325, 18.565381395694203 ], [ -93.234497726747236, 18.565329925750348 ], [ -93.234501177117806, 18.565323584268128 ], [ -93.23450681025372, 18.565315498156792 ], [ -93.234545279159647, 18.565271773500172 ], [ -93.234565477323599, 18.565241195871238 ], [ -93.234582321961511, 18.565215695073846 ], [ -93.234613857313036, 18.565178334550637 ], [ -93.234628657202336, 18.565163302499684 ], [ -93.234635961785841, 18.56515418202622 ], [ -93.234667821276446, 18.565114402379947 ], [ -93.23467252187919, 18.565109351944329 ], [ -93.234675092770431, 18.56510714768234 ], [ -93.234729448022222, 18.565060543893082 ], [ -93.234759694108902, 18.565029217469657 ], [ -93.234781960233306, 18.56500881147258 ], [ -93.234793221735629, 18.564999910219512 ], [ -93.234819545676146, 18.564979103393 ], [ -93.234842179625616, 18.564959459541683 ], [ -93.234853095174344, 18.564947591124678 ], [ -93.234892919286892, 18.564904290562936 ], [ -93.234926261909436, 18.564867874125639 ], [ -93.234946472145396, 18.564848875669497 ], [ -93.234955224493774, 18.564838649658498 ], [ -93.234986834315464, 18.56480171757056 ], [ -93.234996934873891, 18.564791392430152 ], [ -93.235002082976109, 18.564786023912291 ], [ -93.235052084642177, 18.564733881403299 ], [ -93.235078559687622, 18.564700665683858 ], [ -93.235103114873596, 18.564673559545554 ], [ -93.235155116206897, 18.564614123519675 ], [ -93.235156065821343, 18.564613038137225 ], [ -93.235158481410224, 18.564609867177012 ], [ -93.235194893498942, 18.56456042935838 ], [ -93.235203544234878, 18.564548683981798 ], [ -93.235216907344977, 18.564529590312418 ], [ -93.235251122234104, 18.564483798825734 ], [ -93.235277967044567, 18.564444717573679 ], [ -93.235296719726193, 18.564417417003881 ], [ -93.235308533270768, 18.564399023459941 ], [ -93.235340924498928, 18.564349835008272 ], [ -93.235369543692457, 18.564306374639443 ], [ -93.235383476394986, 18.564287220661981 ], [ -93.235386875694871, 18.564282541088858 ], [ -93.235391083801971, 18.5642753609838 ], [ -93.235427817381719, 18.564212684090421 ], [ -93.235454617875973, 18.564166955551059 ], [ -93.23547010466001, 18.564143206550057 ], [ -93.235483091059962, 18.564111455541877 ], [ -93.235500324148518, 18.564069321602346 ], [ -93.23551637168373, 18.564030086254888 ], [ -93.235532112000669, 18.563996024273592 ], [ -93.235540077248629, 18.563960417523504 ], [ -93.235549605919005, 18.563917821844711 ], [ -93.235561397503602, 18.563865110311042 ], [ -93.235566869568345, 18.563839626627271 ], [ -93.235567967018994, 18.56382051576702 ], [ -93.235571603847177, 18.563757184498627 ], [ -93.235572395451641, 18.563743399594159 ], [ -93.235580131643076, 18.563686339825551 ], [ -93.235581520849678, 18.563676093460913 ], [ -93.235583544896144, 18.563661190936159 ], [ -93.235587960086832, 18.563593483420505 ], [ -93.235590667373685, 18.563551966804198 ], [ -93.235593362036752, 18.563510643758264 ], [ -93.235594466939858, 18.563485624321402 ], [ -93.235603193671182, 18.563428544593989 ], [ -93.23560738042994, 18.563365303845671 ], [ -93.23560807424758, 18.563349592995451 ], [ -93.235608685022839, 18.563345598038381 ], [ -93.235621945863329, 18.563278223885561 ], [ -93.235624567704861, 18.563264903128811 ], [ -93.235629615423704, 18.563209966137833 ], [ -93.23563520321261, 18.563183300636922 ], [ -93.235649553733992, 18.563135948365129 ], [ -93.235658960545265, 18.563104908789626 ], [ -93.235667671617648, 18.563063169346947 ], [ -93.235679062402198, 18.563026041850662 ], [ -93.235698158625951, 18.562984732546056 ], [ -93.235713722168043, 18.562951065187576 ], [ -93.235731274321608, 18.562905917037085 ], [ -93.235744939609901, 18.562876000198685 ], [ -93.235780576361321, 18.562819910049427 ], [ -93.235790271794485, 18.562804650000771 ], [ -93.235832484420939, 18.562734202501019 ], [ -93.235832559474318, 18.562734083076521 ], [ -93.235832616180176, 18.562734011980183 ], [ -93.235832806578799, 18.562733773262835 ], [ -93.235885774180588, 18.562666138203497 ], [ -93.235904703690437, 18.562640352270648 ], [ -93.23593524967913, 18.562598742254579 ] ] ] ] } }
]
}
