{
"type": "FeatureCollection",
"name": "Ductos_Petroleros_Loc",
"crs": { "type": "name", "properties": { "name": "urn:ogc:def:crs:OGC:1.3:CRS84" } },
"features": [
{ "type": "Feature", "properties": { "regin": "Golfo", "ducto": "Ramal Castañito-Dos Bocas", "servicio": "Poliducto", "longitud": 59.6, "capacidad_": 55000.0, "capacida_1": 51000.0 }, "geometry": { "type": "MultiLineString", "coordinates": [ [ [ -93.303662372999952, 17.97682362300003 ], [ -93.294929114999945, 18.00606515000004 ], [ -93.284705298999938, 18.045062481000059 ], [ -93.27771536399996, 18.076294504000032 ], [ -93.267525741999975, 18.113860913000053 ], [ -93.259313639999959, 18.136480104000043 ], [ -93.252126332999978, 18.150555062000024 ], [ -93.235207221999985, 18.165051389000041 ], [ -93.224212026999965, 18.181153259000041 ], [ -93.215384013999937, 18.199462938000067 ], [ -93.202001369999948, 18.219776984000077 ], [ -93.18950482799994, 18.235829613000078 ], [ -93.170426369999973, 18.247393303000024 ], [ -93.156694267999967, 18.255546245000062 ], [ -93.14811793399997, 18.265999359000034 ], [ -93.145084139999938, 18.289481353000042 ], [ -93.157691657999976, 18.314872905000072 ], [ -93.176184812999963, 18.343302745000074 ], [ -93.187591782999959, 18.360084246000042 ], [ -93.193140256999982, 18.373114107000049 ], [ -93.19285261999994, 18.381678671000031 ], [ -93.189334416999941, 18.397288668000044 ], [ -93.176120080999965, 18.434033400000033 ] ] ] } }
]
}
