{
"type": "FeatureCollection",
"name": "Sanchez_Paraiso_Frontera",
"crs": { "type": "name", "properties": { "name": "urn:ogc:def:crs:OGC:1.3:CRS84" } },
"features": [
{ "type": "Feature", "properties": { "CVEGEO": "270020022", "NOM_ENT": "Tabasco", "NOM_MUN": "1", "NOMGEO": "Andrés Sánchez Magallanes", "CABECERA": "No", "POB1": 5518.0, "POB2": 288.0, "POB2_R": 5.2, "POB4": 291.0, "POB4_R": 5.3, "POB5": 611.0, "POB5_R": 11.1, "POB6": 770.0, "POB6_R": 14.0, "POB7": 339.0, "POB7_R": 6.1, "POB8": 1529.0, "POB8_R": 27.7, "POB9": 298.0, "POB9_R": 5.4, "POB10": 860.0, "POB10_R": 15.6, "POB11": 1188.0, "POB11_R": 21.5, "POB12": 3469.0, "POB12_R": 62.9, "POB13": 562.0, "POB13_R": 10.2, "POB14": 1377.0, "POB14_R": 25.0, "POB15": 667.0, "POB15_R": 12.1, "POB17": 5230.0, "POB17_R": 94.8, "POB18": 5035.0, "POB18_R": 91.2, "POB19": 4328.0, "POB19_R": 78.4, "POB20": 3989.0, "POB20_R": 72.3, "POB21": 3691.0, "POB21_R": 66.9, "POB22": 3129.0, "POB22_R": 56.7, "POB23": 757.0, "POB23_R": 13.7, "POB24": 520.0, "POB24_R": 9.4, "POB25": 343.0, "POB25_R": 6.2, "POB42": 2847.0, "POB42_R": 51.6, "POB43": 145.0, "POB43_R": 2.6, "POB45": 146.0, "POB45_R": 2.6, "POB46": 316.0, "POB46_R": 5.7, "POB47": 365.0, "POB47_R": 6.6, "POB48": 145.0, "POB48_R": 2.6, "POB49": 752.0, "POB49_R": 13.6, "POB50": 150.0, "POB50_R": 2.7, "POB51": 447.0, "POB51_R": 8.1, "POB52": 614.0, "POB52_R": 11.1, "POB53": 1353.0, "POB53_R": 24.5, "POB54": 1837.0, "POB54_R": 33.3, "POB55": 297.0, "POB55_R": 5.4, "POB56": 739.0, "POB56_R": 13.4, "POB57": 363.0, "POB57_R": 6.6, "POB59": 2702.0, "POB59_R": 49.0, "POB60": 2609.0, "POB60_R": 47.3, "POB61": 2240.0, "POB61_R": 40.6, "POB62": 2095.0, "POB62_R": 38.0, "POB63": 1945.0, "POB63_R": 35.2, "POB64": 1648.0, "POB64_R": 29.9, "POB65": 379.0, "POB65_R": 6.9, "POB66": 258.0, "POB66_R": 4.7, "POB67": 171.0, "POB67_R": 3.1, "POB84": 2671.0, "POB84_R": 48.4, "POB85": 143.0, "POB85_R": 2.6, "POB87": 145.0, "POB87_R": 2.6, "POB88": 295.0, "POB88_R": 5.3, "POB89": 405.0, "POB89_R": 7.3, "POB90": 194.0, "POB90_R": 3.5, "POB91": 777.0, "POB91_R": 14.1, "POB92": 148.0, "POB92_R": 2.7, "POB93": 413.0, "POB93_R": 7.5, "POB94": 574.0, "POB94_R": 10.4, "POB95": 1632.0, "POB95_R": 29.6, "POB96": 265.0, "POB96_R": 4.8, "POB97": 638.0, "POB97_R": 11.6, "POB98": 304.0, "POB98_R": 5.5, "POB100": 2528.0, "POB100_R": 45.8, "POB101": 2426.0, "POB101_R": 44.0, "POB102": 2088.0, "POB102_R": 37.8, "POB103": 1894.0, "POB103_R": 34.3, "POB104": 1746.0, "POB104_R": 31.6, "POB105": 1481.0, "POB105_R": 26.8, "POB106": 378.0, "POB106_R": 6.9, "POB107": 262.0, "POB107_R": 4.7, "POB108": 172.0, "POB108_R": 3.1, "POB125_R": 93.8, "POB126_R": 59.1, "POB127_R": 44.1, "POB128_R": 15.0, "POB129_R": 30.0, "POB130_R": 31.0, "POB131_R": 29.0, "POB132_R": 49.5, "POB133_R": 50.4, "POB134_R": 48.6, "POB3": 483.0, "POB3_R": 8.8, "POB16": 237.0, "POB16_R": 4.3, "POB26": 472.0, "POB26_R": 8.6, "POB27": 574.0, "POB27_R": 10.4, "POB28": 470.0, "POB28_R": 8.5, "POB29": 390.0, "POB29_R": 7.1, "POB30": 328.0, "POB30_R": 5.9, "POB31": 352.0, "POB31_R": 6.4, "POB32": 365.0, "POB32_R": 6.6, "POB33": 330.0, "POB33_R": 6.0, "POB34": 330.0, "POB34_R": 6.0, "POB35": 342.0, "POB35_R": 6.2, "POB36": 325.0, "POB36_R": 5.9, "POB37": 177.0, "POB37_R": 3.2, "POB38": 138.0, "POB38_R": 2.5, "POB39": 98.0, "POB39_R": 1.8, "POB40": 66.0, "POB40_R": 1.2, "POB41": 41.0, "POB41_R": 0.7, "POB44": 238.0, "POB44_R": 4.3, "POB58": 121.0, "POB58_R": 2.2, "POB68": 243.0, "POB68_R": 4.4, "POB69": 271.0, "POB69_R": 4.9, "POB70": 242.0, "POB70_R": 4.4, "POB71": 205.0, "POB71_R": 3.7, "POB72": 167.0, "POB72_R": 3.0, "POB73": 197.0, "POB73_R": 3.6, "POB74": 195.0, "POB74_R": 3.5, "POB75": 185.0, "POB75_R": 3.4, "POB76": 162.0, "POB76_R": 2.9, "POB77": 189.0, "POB77_R": 3.4, "POB78": 174.0, "POB78_R": 3.2, "POB79": 87.0, "POB79_R": 1.6, "POB80": 54.0, "POB80_R": 1.0, "POB81": 58.0, "POB81_R": 1.1, "POB82": 35.0, "POB82_R": 0.6, "POB83": 24.0, "POB83_R": 0.4, "POB86": 245.0, "POB86_R": 4.4, "POB99": 116.0, "POB99_R": 2.1, "POB109": 229.0, "POB109_R": 4.2, "POB110": 303.0, "POB110_R": 5.5, "POB111": 228.0, "POB111_R": 4.1, "POB112": 185.0, "POB112_R": 3.4, "POB113": 161.0, "POB113_R": 2.9, "POB114": 155.0, "POB114_R": 2.8, "POB115": 170.0, "POB115_R": 3.1, "POB116": 145.0, "POB116_R": 2.6, "POB117": 168.0, "POB117_R": 3.0, "POB118": 153.0, "POB118_R": 2.8, "POB119": 151.0, "POB119_R": 2.7, "POB120": 90.0, "POB120_R": 1.6, "POB121": 84.0, "POB121_R": 1.5, "POB122": 40.0, "POB122_R": 0.7, "POB123": 31.0, "POB123_R": 0.6, "POB124": 17.0, "POB124_R": 0.3, "OID_1": 7 }, "geometry": { "type": "MultiPolygon", "coordinates": [ [ [ [ -93.850491829856992, 18.299749290250762 ], [ -93.850509888810592, 18.298598451724619 ], [ -93.850510578910061, 18.298554621604808 ], [ -93.850588245052876, 18.298616965694382 ], [ -93.850615371043588, 18.298588413406375 ], [ -93.850679529485774, 18.298526772646031 ], [ -93.851237124382322, 18.297987361432867 ], [ -93.851301520541739, 18.297974069188768 ], [ -93.851333494303844, 18.297961663168454 ], [ -93.85146198433489, 18.297862439782559 ], [ -93.851520518114967, 18.297787486328215 ], [ -93.851575102388992, 18.29718065232089 ], [ -93.851627467366612, 18.297177654407214 ], [ -93.851632603115021, 18.29717603232768 ], [ -93.851634550267036, 18.29717541772639 ], [ -93.851654594315505, 18.29716908805986 ], [ -93.851696708961612, 18.297108054492629 ], [ -93.851697814391116, 18.297043174591405 ], [ -93.851698142741029, 18.297023878806321 ], [ -93.851701049613396, 18.297013391313079 ], [ -93.85175988446241, 18.296801104092992 ], [ -93.851759718911921, 18.296700898810005 ], [ -93.851759677749129, 18.296663496269719 ], [ -93.851759656207463, 18.296644500450444 ], [ -93.851996619667418, 18.296278999850173 ], [ -93.85242274654631, 18.295621876670108 ], [ -93.852663666694937, 18.295787250936474 ], [ -93.853039027562929, 18.296054344380213 ], [ -93.85302538065315, 18.296072572336712 ], [ -93.852952468444556, 18.296169956897277 ], [ -93.852944223811292, 18.296180969072946 ], [ -93.852936091492893, 18.296191831492305 ], [ -93.852920051934021, 18.296213504220404 ], [ -93.852749923488929, 18.296443386471221 ], [ -93.852741595127441, 18.296456473699152 ], [ -93.852751113129116, 18.296475508733412 ], [ -93.852786815116403, 18.296497908889599 ], [ -93.853101137859355, 18.296695119345358 ], [ -93.853356112743143, 18.296855092440666 ], [ -93.85337550137821, 18.296860694430364 ], [ -93.853446511169352, 18.296881208239007 ], [ -93.853456284814712, 18.296873003857414 ], [ -93.853773446632232, 18.296431845772073 ], [ -93.85383531300026, 18.296474675898477 ], [ -93.853827416772063, 18.296486083098568 ], [ -93.853574421267567, 18.296851521225967 ], [ -93.853526935245768, 18.29692011163047 ], [ -93.853528027247449, 18.296920890423969 ], [ -93.853709678122726, 18.297050505937641 ], [ -93.853721397634317, 18.29703533384588 ], [ -93.854061837672063, 18.296594602144125 ], [ -93.854113236187956, 18.296641238494029 ], [ -93.854102590943256, 18.296655608110612 ], [ -93.853931274827062, 18.29688688616093 ], [ -93.853770593240384, 18.297103806623269 ], [ -93.853776645183103, 18.29711017117322 ], [ -93.853804023013808, 18.297138964907692 ], [ -93.853825797136281, 18.297161864259376 ], [ -93.853887662941347, 18.297180900759468 ], [ -93.853928588598833, 18.29716567299689 ], [ -93.853999973064276, 18.297198032103882 ], [ -93.854381639321147, 18.296629816673772 ], [ -93.854986978360188, 18.29699309960505 ], [ -93.855917399584243, 18.296309550604491 ], [ -93.855940749530959, 18.296330458293319 ], [ -93.855985979939518, 18.296297880929231 ], [ -93.856323689224467, 18.296093949885453 ], [ -93.85641442898276, 18.296075400418562 ], [ -93.856432310269838, 18.295947780385468 ], [ -93.856563249878121, 18.295810769544879 ], [ -93.85664585972539, 18.295785970152998 ], [ -93.856730049618591, 18.295763822706046 ], [ -93.856831599432567, 18.295720980859361 ], [ -93.856880520330236, 18.295686860229363 ], [ -93.857426528802719, 18.295499519115324 ], [ -93.857585378645012, 18.29550483019214 ], [ -93.857683820175524, 18.295469419791736 ], [ -93.85772543278307, 18.295455384615018 ], [ -93.857778230462642, 18.295419620218734 ], [ -93.858168080373005, 18.295157460273252 ], [ -93.858355379862928, 18.295063290952797 ], [ -93.85850908928181, 18.295060059824792 ], [ -93.859228310323118, 18.294719506112056 ], [ -93.859345170060081, 18.294710520759995 ], [ -93.859413489053495, 18.29468191957119 ], [ -93.859458649170492, 18.294669540826867 ], [ -93.860199879389555, 18.294427257782917 ], [ -93.860981535126626, 18.293957424148225 ], [ -93.861023233085675, 18.293953423731995 ], [ -93.861236468676509, 18.293862458241183 ], [ -93.861292625156182, 18.293887204008733 ], [ -93.861399225334239, 18.293866739583621 ], [ -93.861432496768586, 18.293839099120444 ], [ -93.861492023317155, 18.293789646313673 ], [ -93.861521053982898, 18.293730158698661 ], [ -93.861631553301578, 18.293666616709402 ], [ -93.861637910102075, 18.293662961042649 ], [ -93.861672388587863, 18.293613091388501 ], [ -93.861679500986114, 18.293614754982016 ], [ -93.861688244981352, 18.293616801604983 ], [ -93.861739487111464, 18.29362879484033 ], [ -93.861832286406411, 18.293630698685618 ], [ -93.861876545172038, 18.29359786228952 ], [ -93.86187878852779, 18.293595551033331 ], [ -93.861883792612488, 18.293590395694043 ], [ -93.862128767401984, 18.293338024521965 ], [ -93.86227008489719, 18.293283344522184 ], [ -93.86224725515828, 18.293226945531146 ], [ -93.862256631923572, 18.293221796375178 ], [ -93.862341027668847, 18.293175451493759 ], [ -93.862349222764095, 18.293170951348237 ], [ -93.862526731773016, 18.29307347521512 ], [ -93.862659323571918, 18.293279537556657 ], [ -93.863064967092711, 18.293069191900649 ], [ -93.8633389723542, 18.292892242520971 ], [ -93.863332782505267, 18.292883486879859 ], [ -93.863304101881951, 18.292842907179743 ], [ -93.863395907899104, 18.292801613176223 ], [ -93.863420910058394, 18.29279036792115 ], [ -93.863467571287146, 18.292769380543746 ], [ -93.86344901136161, 18.292707276428938 ], [ -93.863617157821636, 18.29260903931295 ], [ -93.863656984188523, 18.292585771865188 ], [ -93.863716519167653, 18.292574271442536 ], [ -93.863728428366841, 18.292591719101885 ], [ -93.863738115992732, 18.292605911007715 ], [ -93.86382449039634, 18.292601627774847 ], [ -93.863972967691808, 18.292564509638069 ], [ -93.864142148712787, 18.292553087086795 ], [ -93.864247797127618, 18.292523107247703 ], [ -93.864280918110822, 18.292532799087233 ], [ -93.86430996081647, 18.292541298313061 ], [ -93.864336397495677, 18.292542572897279 ], [ -93.864362011223093, 18.29254380827259 ], [ -93.864459092722655, 18.292540237780027 ], [ -93.864504573777893, 18.292531407149845 ], [ -93.864532617493822, 18.292525961972434 ], [ -93.864544044757423, 18.292515487092675 ], [ -93.864575449104649, 18.292486700892475 ], [ -93.864709342970883, 18.292417719570814 ], [ -93.864723612250756, 18.292420935612515 ], [ -93.864730351868474, 18.292422454698634 ], [ -93.864822436514515, 18.292369630822069 ], [ -93.864801021383286, 18.292336080281608 ], [ -93.865053676430094, 18.292198755265243 ], [ -93.865100386284283, 18.292173367145299 ], [ -93.865134313892781, 18.292166153269427 ], [ -93.865421265850856, 18.292075936760881 ], [ -93.86550616025643, 18.292004206556665 ], [ -93.865442287067395, 18.291913726012154 ], [ -93.865558879773189, 18.291820927555523 ], [ -93.865527945991772, 18.29173883571033 ], [ -93.865572578867585, 18.291712510240586 ], [ -93.865696918596882, 18.291618480916515 ], [ -93.865738910230107, 18.291597490647042 ], [ -93.865764708724527, 18.291571850784276 ], [ -93.86598304895638, 18.29142118084529 ], [ -93.866491880461709, 18.291185489784919 ], [ -93.866999709936053, 18.290628460499267 ], [ -93.867015248123948, 18.290598733789256 ], [ -93.867034659729583, 18.290548569973925 ], [ -93.86746288877444, 18.289940001121114 ], [ -93.867752739076224, 18.289762940216921 ], [ -93.867816400353306, 18.289846490563566 ], [ -93.86783328948195, 18.289841659648623 ], [ -93.86785184887313, 18.289822799949157 ], [ -93.867958939456415, 18.289726800904969 ], [ -93.868385168801026, 18.28938088014824 ], [ -93.868412807082905, 18.289367253527008 ], [ -93.868541915962197, 18.289274419719941 ], [ -93.868608289152462, 18.289234230461037 ], [ -93.868926940597319, 18.289019845288923 ], [ -93.868958140187601, 18.288992942936307 ], [ -93.868982859536899, 18.288974080019102 ], [ -93.869071610882443, 18.288874982076813 ], [ -93.869184779845213, 18.288797030383652 ], [ -93.869293826275396, 18.288706751040831 ], [ -93.86953396889011, 18.288531689836713 ], [ -93.869888259139913, 18.288269171410224 ], [ -93.869847249306517, 18.288193890716585 ], [ -93.869857658801124, 18.28818625998041 ], [ -93.8698915186325, 18.288157970339441 ], [ -93.869924579908187, 18.288209579732261 ], [ -93.870152490252522, 18.288030170334689 ], [ -93.870192979161672, 18.287963419619064 ], [ -93.870403279296625, 18.287575689708518 ], [ -93.870435319699382, 18.287469981459243 ], [ -93.870453419878132, 18.287436580479529 ], [ -93.870814319616045, 18.287010139744083 ], [ -93.871001690001563, 18.286844800724968 ], [ -93.871179399441431, 18.286404720482121 ], [ -93.871179416064919, 18.286404744036361 ], [ -93.871195508070514, 18.286428351858472 ], [ -93.871308339348829, 18.286593890378306 ], [ -93.871205029495982, 18.286852710441206 ], [ -93.871154418949502, 18.287080460625713 ], [ -93.870939109940863, 18.287249049971322 ], [ -93.870914820250832, 18.287359284951314 ], [ -93.871005338731905, 18.287512450082808 ], [ -93.871081030366668, 18.287637460978676 ], [ -93.871009920394897, 18.287694949736302 ], [ -93.870931350115669, 18.287640344756554 ], [ -93.870878600427446, 18.287680140645094 ], [ -93.870927368820603, 18.287765660317284 ], [ -93.871056079879239, 18.287707910200005 ], [ -93.871125625429258, 18.287802091323282 ], [ -93.87103847965848, 18.287877230399221 ], [ -93.871127179054412, 18.288019890970698 ], [ -93.871120450091098, 18.28834717511651 ], [ -93.871301089433288, 18.288229259712853 ], [ -93.871316148641881, 18.288455339533787 ], [ -93.871122088890189, 18.288677055051629 ], [ -93.871334589829971, 18.288992660646787 ], [ -93.871535309917874, 18.288989115674795 ], [ -93.872718368916466, 18.288063190952634 ], [ -93.872777016226152, 18.288136583113261 ], [ -93.872850410580114, 18.288228431204683 ], [ -93.872875219292283, 18.288259741233418 ], [ -93.872893018759683, 18.288283085328075 ], [ -93.873186128452971, 18.288667543389824 ], [ -93.872356658468419, 18.289236119950509 ], [ -93.872822889895772, 18.290095080397847 ], [ -93.872421569049223, 18.290334650757245 ], [ -93.872588179485959, 18.290738580639548 ], [ -93.872896469909875, 18.29138134954313 ], [ -93.872920908813668, 18.291807021131863 ], [ -93.87300645986295, 18.292419079689484 ], [ -93.873273109026542, 18.292387890123617 ], [ -93.873372255031185, 18.292746857455853 ], [ -93.873379149456255, 18.292772001103884 ], [ -93.873765709950476, 18.293586150856918 ], [ -93.873152888908947, 18.293827510235339 ], [ -93.87320465025546, 18.293963551302269 ], [ -93.872507309672244, 18.294116140381817 ], [ -93.871798348516066, 18.29429665164534 ], [ -93.871767179052497, 18.294421579602258 ], [ -93.870787679838713, 18.29451789094885 ], [ -93.870701105733872, 18.294536063042749 ], [ -93.870409662729656, 18.294597235986366 ], [ -93.870200349769831, 18.294641173701503 ], [ -93.869693039291704, 18.294940935573688 ], [ -93.869335919586675, 18.295151950076647 ], [ -93.868578015766374, 18.295262241031566 ], [ -93.867981379831079, 18.29534906082306 ], [ -93.867701763860154, 18.295438855213067 ], [ -93.866676800480448, 18.295767998958809 ], [ -93.865946289604665, 18.29600258263407 ], [ -93.865888360114226, 18.296018587671249 ], [ -93.865101858256978, 18.296235890851797 ], [ -93.864957810793442, 18.296256675635426 ], [ -93.864610543990466, 18.296306785139116 ], [ -93.86428685910613, 18.296353491008084 ], [ -93.863527284268628, 18.296605107272512 ], [ -93.862759818076057, 18.29685933190812 ], [ -93.862607878854206, 18.296909660659995 ], [ -93.861497386517001, 18.29732997255342 ], [ -93.860561305835631, 18.297684263805486 ], [ -93.860232418932853, 18.297808739757919 ], [ -93.859980250407148, 18.297837468074633 ], [ -93.859141356352509, 18.297933032715594 ], [ -93.858566720130398, 18.297998490947567 ], [ -93.857773109097138, 18.298259982221445 ], [ -93.857645429609562, 18.29833108635772 ], [ -93.857308601603364, 18.29851866781177 ], [ -93.856947708682256, 18.298719650655727 ], [ -93.856640020931138, 18.298734283392822 ], [ -93.855792548964999, 18.298774581137941 ], [ -93.855399004770774, 18.298905517382835 ], [ -93.855085029656649, 18.299009979117304 ], [ -93.85468033007534, 18.299144623792131 ], [ -93.854612019668238, 18.299167350902007 ], [ -93.853925709915956, 18.299301421883118 ], [ -93.853653952519593, 18.299353244758716 ], [ -93.853148769937278, 18.299449580770407 ], [ -93.852017019200034, 18.299692710284567 ], [ -93.851310258760577, 18.299835150638806 ], [ -93.851096342905507, 18.29984022429754 ], [ -93.850666418261525, 18.299850420998787 ], [ -93.850520025517469, 18.299765623346019 ], [ -93.850491829856992, 18.299749290250762 ] ] ] ] } },
{ "type": "Feature", "properties": { "CVEGEO": null, "NOM_ENT": null, "NOM_MUN": "2", "NOMGEO": "Colonia Miguel de la Madrid", "CABECERA": null, "POB1": 0.0, "POB2": 0.0, "POB2_R": 0.0, "POB4": 0.0, "POB4_R": 0.0, "POB5": 0.0, "POB5_R": 0.0, "POB6": 0.0, "POB6_R": 0.0, "POB7": 0.0, "POB7_R": 0.0, "POB8": 0.0, "POB8_R": 0.0, "POB9": 0.0, "POB9_R": 0.0, "POB10": 0.0, "POB10_R": 0.0, "POB11": 0.0, "POB11_R": 0.0, "POB12": 0.0, "POB12_R": 0.0, "POB13": 0.0, "POB13_R": 0.0, "POB14": 0.0, "POB14_R": 0.0, "POB15": 0.0, "POB15_R": 0.0, "POB17": 0.0, "POB17_R": 0.0, "POB18": 0.0, "POB18_R": 0.0, "POB19": 0.0, "POB19_R": 0.0, "POB20": 0.0, "POB20_R": 0.0, "POB21": 0.0, "POB21_R": 0.0, "POB22": 0.0, "POB22_R": 0.0, "POB23": 0.0, "POB23_R": 0.0, "POB24": 0.0, "POB24_R": 0.0, "POB25": 0.0, "POB25_R": 0.0, "POB42": 0.0, "POB42_R": 0.0, "POB43": 0.0, "POB43_R": 0.0, "POB45": 0.0, "POB45_R": 0.0, "POB46": 0.0, "POB46_R": 0.0, "POB47": 0.0, "POB47_R": 0.0, "POB48": 0.0, "POB48_R": 0.0, "POB49": 0.0, "POB49_R": 0.0, "POB50": 0.0, "POB50_R": 0.0, "POB51": 0.0, "POB51_R": 0.0, "POB52": 0.0, "POB52_R": 0.0, "POB53": 0.0, "POB53_R": 0.0, "POB54": 0.0, "POB54_R": 0.0, "POB55": 0.0, "POB55_R": 0.0, "POB56": 0.0, "POB56_R": 0.0, "POB57": 0.0, "POB57_R": 0.0, "POB59": 0.0, "POB59_R": 0.0, "POB60": 0.0, "POB60_R": 0.0, "POB61": 0.0, "POB61_R": 0.0, "POB62": 0.0, "POB62_R": 0.0, "POB63": 0.0, "POB63_R": 0.0, "POB64": 0.0, "POB64_R": 0.0, "POB65": 0.0, "POB65_R": 0.0, "POB66": 0.0, "POB66_R": 0.0, "POB67": 0.0, "POB67_R": 0.0, "POB84": 0.0, "POB84_R": 0.0, "POB85": 0.0, "POB85_R": 0.0, "POB87": 0.0, "POB87_R": 0.0, "POB88": 0.0, "POB88_R": 0.0, "POB89": 0.0, "POB89_R": 0.0, "POB90": 0.0, "POB90_R": 0.0, "POB91": 0.0, "POB91_R": 0.0, "POB92": 0.0, "POB92_R": 0.0, "POB93": 0.0, "POB93_R": 0.0, "POB94": 0.0, "POB94_R": 0.0, "POB95": 0.0, "POB95_R": 0.0, "POB96": 0.0, "POB96_R": 0.0, "POB97": 0.0, "POB97_R": 0.0, "POB98": 0.0, "POB98_R": 0.0, "POB100": 0.0, "POB100_R": 0.0, "POB101": 0.0, "POB101_R": 0.0, "POB102": 0.0, "POB102_R": 0.0, "POB103": 0.0, "POB103_R": 0.0, "POB104": 0.0, "POB104_R": 0.0, "POB105": 0.0, "POB105_R": 0.0, "POB106": 0.0, "POB106_R": 0.0, "POB107": 0.0, "POB107_R": 0.0, "POB108": 0.0, "POB108_R": 0.0, "POB125_R": 0.0, "POB126_R": 0.0, "POB127_R": 0.0, "POB128_R": 0.0, "POB129_R": 0.0, "POB130_R": 0.0, "POB131_R": 0.0, "POB132_R": 0.0, "POB133_R": 0.0, "POB134_R": 0.0, "POB3": 0.0, "POB3_R": 0.0, "POB16": 0.0, "POB16_R": 0.0, "POB26": 0.0, "POB26_R": 0.0, "POB27": 0.0, "POB27_R": 0.0, "POB28": 0.0, "POB28_R": 0.0, "POB29": 0.0, "POB29_R": 0.0, "POB30": 0.0, "POB30_R": 0.0, "POB31": 0.0, "POB31_R": 0.0, "POB32": 0.0, "POB32_R": 0.0, "POB33": 0.0, "POB33_R": 0.0, "POB34": 0.0, "POB34_R": 0.0, "POB35": 0.0, "POB35_R": 0.0, "POB36": 0.0, "POB36_R": 0.0, "POB37": 0.0, "POB37_R": 0.0, "POB38": 0.0, "POB38_R": 0.0, "POB39": 0.0, "POB39_R": 0.0, "POB40": 0.0, "POB40_R": 0.0, "POB41": 0.0, "POB41_R": 0.0, "POB44": 0.0, "POB44_R": 0.0, "POB58": 0.0, "POB58_R": 0.0, "POB68": 0.0, "POB68_R": 0.0, "POB69": 0.0, "POB69_R": 0.0, "POB70": 0.0, "POB70_R": 0.0, "POB71": 0.0, "POB71_R": 0.0, "POB72": 0.0, "POB72_R": 0.0, "POB73": 0.0, "POB73_R": 0.0, "POB74": 0.0, "POB74_R": 0.0, "POB75": 0.0, "POB75_R": 0.0, "POB76": 0.0, "POB76_R": 0.0, "POB77": 0.0, "POB77_R": 0.0, "POB78": 0.0, "POB78_R": 0.0, "POB79": 0.0, "POB79_R": 0.0, "POB80": 0.0, "POB80_R": 0.0, "POB81": 0.0, "POB81_R": 0.0, "POB82": 0.0, "POB82_R": 0.0, "POB83": 0.0, "POB83_R": 0.0, "POB86": 0.0, "POB86_R": 0.0, "POB99": 0.0, "POB99_R": 0.0, "POB109": 0.0, "POB109_R": 0.0, "POB110": 0.0, "POB110_R": 0.0, "POB111": 0.0, "POB111_R": 0.0, "POB112": 0.0, "POB112_R": 0.0, "POB113": 0.0, "POB113_R": 0.0, "POB114": 0.0, "POB114_R": 0.0, "POB115": 0.0, "POB115_R": 0.0, "POB116": 0.0, "POB116_R": 0.0, "POB117": 0.0, "POB117_R": 0.0, "POB118": 0.0, "POB118_R": 0.0, "POB119": 0.0, "POB119_R": 0.0, "POB120": 0.0, "POB120_R": 0.0, "POB121": 0.0, "POB121_R": 0.0, "POB122": 0.0, "POB122_R": 0.0, "POB123": 0.0, "POB123_R": 0.0, "POB124": 0.0, "POB124_R": 0.0, "OID_1": 0 }, "geometry": { "type": "MultiPolygon", "coordinates": [ [ [ [ -93.166572108831133, 18.421849607082532 ], [ -93.166289127039491, 18.421921092034349 ], [ -93.16641409729742, 18.422105612531976 ], [ -93.166214485937374, 18.422165345353708 ], [ -93.166158521201524, 18.421959524780021 ], [ -93.166033370531949, 18.42199278541877 ], [ -93.166045958383322, 18.422105934704138 ], [ -93.165871288346651, 18.422147777947547 ], [ -93.165802763589838, 18.421994245583331 ], [ -93.165676601759301, 18.422017963948939 ], [ -93.165459386408088, 18.42205880012277 ], [ -93.165521896747947, 18.422177861756275 ], [ -93.165382323218779, 18.422333627477808 ], [ -93.165325134069022, 18.422356892518408 ], [ -93.165003281968822, 18.422487824298067 ], [ -93.164929453959516, 18.422517857965488 ], [ -93.164779719182803, 18.422535855336278 ], [ -93.164623693723854, 18.422500255798962 ], [ -93.164596801335193, 18.422628231382038 ], [ -93.164510528041504, 18.422662237856262 ], [ -93.164361837409743, 18.422720847343463 ], [ -93.164267707006942, 18.42254503406091 ], [ -93.164135101090224, 18.422585051119079 ], [ -93.163999846506599, 18.422625867362516 ], [ -93.163968749772934, 18.422733098695513 ], [ -93.163987581647476, 18.422852198531917 ], [ -93.163937754560024, 18.422947534418618 ], [ -93.163775556863058, 18.42298340917063 ], [ -93.163621856608472, 18.423123807656445 ], [ -93.1634423955241, 18.423201314003261 ], [ -93.1632042385272, 18.423304169798818 ], [ -93.163043892629787, 18.423373420119507 ], [ -93.162960065223785, 18.42340962349402 ], [ -93.162807309565352, 18.423475595463607 ], [ -93.162345453911513, 18.423656216029737 ], [ -93.162222556429356, 18.423708744416071 ], [ -93.162125095965806, 18.42374605141088 ], [ -93.161992864637142, 18.423699062292638 ], [ -93.161789548948946, 18.423781173517533 ], [ -93.161427611628795, 18.423927345061589 ], [ -93.161160160552868, 18.424035356910188 ], [ -93.161072414577731, 18.424035431344361 ], [ -93.160694594527115, 18.423976837436225 ], [ -93.160596427004563, 18.424012364913512 ], [ -93.1603510080202, 18.424101183385456 ], [ -93.160214548688586, 18.42413852232405 ], [ -93.159997948374482, 18.424201328630179 ], [ -93.159834427628425, 18.424259819879186 ], [ -93.15950294237966, 18.424260098551731 ], [ -93.15944432493383, 18.424129864537715 ], [ -93.159168385714921, 18.42414927793973 ], [ -93.158933615157579, 18.424222194319956 ], [ -93.158710759766919, 18.424291409694543 ], [ -93.158365386141739, 18.424398676677733 ], [ -93.158118699508549, 18.42447529274855 ], [ -93.157886131229603, 18.424400833289159 ], [ -93.157631220551821, 18.424475697961846 ], [ -93.157436144295588, 18.424382800310429 ], [ -93.157161248036587, 18.424589256327071 ], [ -93.156987867536245, 18.424639724927275 ], [ -93.15690992044793, 18.424662414156071 ], [ -93.156714878074666, 18.424606739519522 ], [ -93.156623882277643, 18.424447047113016 ], [ -93.156257663914872, 18.42454265376227 ], [ -93.15595908399753, 18.424620601807749 ], [ -93.155639884294771, 18.424703932311413 ], [ -93.155437815879324, 18.424756684118599 ], [ -93.155184451569923, 18.424896480499417 ], [ -93.15502869969994, 18.425166480131086 ], [ -93.154893550165298, 18.425376409938806 ], [ -93.154755935083031, 18.425417963123977 ], [ -93.154288160115584, 18.425650992359575 ], [ -93.154142056347297, 18.425809312072772 ], [ -93.15395675491817, 18.425744320761083 ], [ -93.153856740003079, 18.425618151280837 ], [ -93.153712939198925, 18.425660764744695 ], [ -93.15378143486673, 18.425939887662224 ], [ -93.153606040063138, 18.426051700952026 ], [ -93.153498678109685, 18.425921504521263 ], [ -93.153440006825818, 18.425726127073624 ], [ -93.153269758903278, 18.425563095765622 ], [ -93.153118161258405, 18.425605409534626 ], [ -93.152962306796439, 18.425763736208914 ], [ -93.152894207239584, 18.425931298071607 ], [ -93.152748019796093, 18.425996557327544 ], [ -93.152679665370542, 18.425875634996789 ], [ -93.152630802139129, 18.425745391029515 ], [ -93.152630670792689, 18.425596495996793 ], [ -93.15258089401658, 18.425435173113588 ], [ -93.152353485898658, 18.425493441868745 ], [ -93.152240619494577, 18.425522361498523 ], [ -93.152250598418732, 18.425782919995221 ], [ -93.152229547244033, 18.426016610959817 ], [ -93.152104590835066, 18.426052909426641 ], [ -93.151977763373765, 18.425959951502371 ], [ -93.151919175499643, 18.425857632970416 ], [ -93.151799506732303, 18.425881361605608 ], [ -93.151575435036818, 18.425942505210248 ], [ -93.151373316669634, 18.425997658032763 ], [ -93.151217338249083, 18.426016394186497 ], [ -93.150856487129573, 18.426016291472205 ], [ -93.150749378454378, 18.426044684060297 ], [ -93.150408042894995, 18.425933283340623 ], [ -93.150194942473703, 18.425715136337423 ], [ -93.149978912443885, 18.42576611567516 ], [ -93.149900842638644, 18.425682423788757 ], [ -93.149748970214858, 18.425610578882406 ], [ -93.149676552367296, 18.425626765005909 ], [ -93.149676415513838, 18.425468564009897 ], [ -93.149851925131685, 18.425487037502197 ], [ -93.150066312282007, 18.42536589090734 ], [ -93.150089254800349, 18.425204931534665 ], [ -93.150144042863417, 18.425058733205848 ], [ -93.150173162483583, 18.424909815020197 ], [ -93.150182766702954, 18.424742300365111 ], [ -93.150218948759232, 18.424650947604068 ], [ -93.150358049213693, 18.424500207032459 ], [ -93.150484745246104, 18.424444271000979 ], [ -93.150699163080034, 18.424360347457704 ], [ -93.151011052051288, 18.424248428354876 ], [ -93.151215752347994, 18.424201735748305 ], [ -93.151556905675648, 18.424108404345752 ], [ -93.151732365139182, 18.424071040462543 ], [ -93.151985820981579, 18.424033614019418 ], [ -93.152132023427754, 18.423986967229531 ], [ -93.152258702126218, 18.423912418135711 ], [ -93.152404855218222, 18.423809935487753 ], [ -93.152531435234323, 18.423623714913901 ], [ -93.15285303831952, 18.423474561199662 ], [ -93.153047946514718, 18.423381344762735 ], [ -93.153408497244797, 18.423176323033008 ], [ -93.153525408780069, 18.4230831690871 ], [ -93.153671477779497, 18.422887626048457 ], [ -93.153768873467456, 18.422775875843126 ], [ -93.153856503003624, 18.422645521601108 ], [ -93.154041643680216, 18.422533700160084 ], [ -93.15415875339599, 18.422663888430236 ], [ -93.154285803601269, 18.423008105361255 ], [ -93.15427629469967, 18.423277985578146 ], [ -93.154179048306034, 18.423557242975772 ], [ -93.154033178133162, 18.423976128967741 ], [ -93.154004186225109, 18.424264636840466 ], [ -93.154111448060675, 18.424283161730433 ], [ -93.154384402809001, 18.424245716265816 ], [ -93.154686589494744, 18.424189634710306 ], [ -93.154630444752854, 18.424341167160303 ], [ -93.15527105525841, 18.424301992398807 ], [ -93.156335334133999, 18.424180153038748 ], [ -93.158363204161702, 18.423979547435746 ], [ -93.15913311422814, 18.423862600117058 ], [ -93.159688439768516, 18.423876654061637 ], [ -93.160114928519661, 18.423818132847014 ], [ -93.160983044089917, 18.423599290944669 ], [ -93.161455178326577, 18.423482565876448 ], [ -93.161743257584064, 18.423305760659098 ], [ -93.162118686989658, 18.423160559175344 ], [ -93.162638095098444, 18.422939289914972 ], [ -93.163008200133035, 18.422623347573353 ], [ -93.1633407082807, 18.422562468708463 ], [ -93.163798646996511, 18.422316867534072 ], [ -93.164180673076757, 18.422084337785204 ], [ -93.164640050651457, 18.421941808167354 ], [ -93.16487635335109, 18.421870621144649 ], [ -93.165345173148239, 18.421729386482571 ], [ -93.165981908175098, 18.421534579691361 ], [ -93.166425081577685, 18.421421555011772 ], [ -93.166572108831133, 18.421849607082532 ] ] ] ] } },
{ "type": "Feature", "properties": { "CVEGEO": null, "NOM_ENT": null, "NOM_MUN": "3", "NOMGEO": "Colonia del Bosque", "CABECERA": null, "POB1": 0.0, "POB2": 0.0, "POB2_R": 0.0, "POB4": 0.0, "POB4_R": 0.0, "POB5": 0.0, "POB5_R": 0.0, "POB6": 0.0, "POB6_R": 0.0, "POB7": 0.0, "POB7_R": 0.0, "POB8": 0.0, "POB8_R": 0.0, "POB9": 0.0, "POB9_R": 0.0, "POB10": 0.0, "POB10_R": 0.0, "POB11": 0.0, "POB11_R": 0.0, "POB12": 0.0, "POB12_R": 0.0, "POB13": 0.0, "POB13_R": 0.0, "POB14": 0.0, "POB14_R": 0.0, "POB15": 0.0, "POB15_R": 0.0, "POB17": 0.0, "POB17_R": 0.0, "POB18": 0.0, "POB18_R": 0.0, "POB19": 0.0, "POB19_R": 0.0, "POB20": 0.0, "POB20_R": 0.0, "POB21": 0.0, "POB21_R": 0.0, "POB22": 0.0, "POB22_R": 0.0, "POB23": 0.0, "POB23_R": 0.0, "POB24": 0.0, "POB24_R": 0.0, "POB25": 0.0, "POB25_R": 0.0, "POB42": 0.0, "POB42_R": 0.0, "POB43": 0.0, "POB43_R": 0.0, "POB45": 0.0, "POB45_R": 0.0, "POB46": 0.0, "POB46_R": 0.0, "POB47": 0.0, "POB47_R": 0.0, "POB48": 0.0, "POB48_R": 0.0, "POB49": 0.0, "POB49_R": 0.0, "POB50": 0.0, "POB50_R": 0.0, "POB51": 0.0, "POB51_R": 0.0, "POB52": 0.0, "POB52_R": 0.0, "POB53": 0.0, "POB53_R": 0.0, "POB54": 0.0, "POB54_R": 0.0, "POB55": 0.0, "POB55_R": 0.0, "POB56": 0.0, "POB56_R": 0.0, "POB57": 0.0, "POB57_R": 0.0, "POB59": 0.0, "POB59_R": 0.0, "POB60": 0.0, "POB60_R": 0.0, "POB61": 0.0, "POB61_R": 0.0, "POB62": 0.0, "POB62_R": 0.0, "POB63": 0.0, "POB63_R": 0.0, "POB64": 0.0, "POB64_R": 0.0, "POB65": 0.0, "POB65_R": 0.0, "POB66": 0.0, "POB66_R": 0.0, "POB67": 0.0, "POB67_R": 0.0, "POB84": 0.0, "POB84_R": 0.0, "POB85": 0.0, "POB85_R": 0.0, "POB87": 0.0, "POB87_R": 0.0, "POB88": 0.0, "POB88_R": 0.0, "POB89": 0.0, "POB89_R": 0.0, "POB90": 0.0, "POB90_R": 0.0, "POB91": 0.0, "POB91_R": 0.0, "POB92": 0.0, "POB92_R": 0.0, "POB93": 0.0, "POB93_R": 0.0, "POB94": 0.0, "POB94_R": 0.0, "POB95": 0.0, "POB95_R": 0.0, "POB96": 0.0, "POB96_R": 0.0, "POB97": 0.0, "POB97_R": 0.0, "POB98": 0.0, "POB98_R": 0.0, "POB100": 0.0, "POB100_R": 0.0, "POB101": 0.0, "POB101_R": 0.0, "POB102": 0.0, "POB102_R": 0.0, "POB103": 0.0, "POB103_R": 0.0, "POB104": 0.0, "POB104_R": 0.0, "POB105": 0.0, "POB105_R": 0.0, "POB106": 0.0, "POB106_R": 0.0, "POB107": 0.0, "POB107_R": 0.0, "POB108": 0.0, "POB108_R": 0.0, "POB125_R": 0.0, "POB126_R": 0.0, "POB127_R": 0.0, "POB128_R": 0.0, "POB129_R": 0.0, "POB130_R": 0.0, "POB131_R": 0.0, "POB132_R": 0.0, "POB133_R": 0.0, "POB134_R": 0.0, "POB3": 0.0, "POB3_R": 0.0, "POB16": 0.0, "POB16_R": 0.0, "POB26": 0.0, "POB26_R": 0.0, "POB27": 0.0, "POB27_R": 0.0, "POB28": 0.0, "POB28_R": 0.0, "POB29": 0.0, "POB29_R": 0.0, "POB30": 0.0, "POB30_R": 0.0, "POB31": 0.0, "POB31_R": 0.0, "POB32": 0.0, "POB32_R": 0.0, "POB33": 0.0, "POB33_R": 0.0, "POB34": 0.0, "POB34_R": 0.0, "POB35": 0.0, "POB35_R": 0.0, "POB36": 0.0, "POB36_R": 0.0, "POB37": 0.0, "POB37_R": 0.0, "POB38": 0.0, "POB38_R": 0.0, "POB39": 0.0, "POB39_R": 0.0, "POB40": 0.0, "POB40_R": 0.0, "POB41": 0.0, "POB41_R": 0.0, "POB44": 0.0, "POB44_R": 0.0, "POB58": 0.0, "POB58_R": 0.0, "POB68": 0.0, "POB68_R": 0.0, "POB69": 0.0, "POB69_R": 0.0, "POB70": 0.0, "POB70_R": 0.0, "POB71": 0.0, "POB71_R": 0.0, "POB72": 0.0, "POB72_R": 0.0, "POB73": 0.0, "POB73_R": 0.0, "POB74": 0.0, "POB74_R": 0.0, "POB75": 0.0, "POB75_R": 0.0, "POB76": 0.0, "POB76_R": 0.0, "POB77": 0.0, "POB77_R": 0.0, "POB78": 0.0, "POB78_R": 0.0, "POB79": 0.0, "POB79_R": 0.0, "POB80": 0.0, "POB80_R": 0.0, "POB81": 0.0, "POB81_R": 0.0, "POB82": 0.0, "POB82_R": 0.0, "POB83": 0.0, "POB83_R": 0.0, "POB86": 0.0, "POB86_R": 0.0, "POB99": 0.0, "POB99_R": 0.0, "POB109": 0.0, "POB109_R": 0.0, "POB110": 0.0, "POB110_R": 0.0, "POB111": 0.0, "POB111_R": 0.0, "POB112": 0.0, "POB112_R": 0.0, "POB113": 0.0, "POB113_R": 0.0, "POB114": 0.0, "POB114_R": 0.0, "POB115": 0.0, "POB115_R": 0.0, "POB116": 0.0, "POB116_R": 0.0, "POB117": 0.0, "POB117_R": 0.0, "POB118": 0.0, "POB118_R": 0.0, "POB119": 0.0, "POB119_R": 0.0, "POB120": 0.0, "POB120_R": 0.0, "POB121": 0.0, "POB121_R": 0.0, "POB122": 0.0, "POB122_R": 0.0, "POB123": 0.0, "POB123_R": 0.0, "POB124": 0.0, "POB124_R": 0.0, "OID_1": 0 }, "geometry": { "type": "MultiPolygon", "coordinates": [ [ [ [ -92.685505786402175, 18.614205134296142 ], [ -92.685651109626903, 18.61432670966791 ], [ -92.685978704294953, 18.614450814183062 ], [ -92.686150384376631, 18.614472853000073 ], [ -92.686329431419665, 18.61448328384267 ], [ -92.686665789692782, 18.614454612890555 ], [ -92.686867653785157, 18.61471623641917 ], [ -92.687073764772848, 18.615016496614455 ], [ -92.687159832001583, 18.615061032156984 ], [ -92.687420682052007, 18.615347800748815 ], [ -92.687627577783047, 18.615471258569322 ], [ -92.687634961538848, 18.615721787020298 ], [ -92.687753850390081, 18.615806472356965 ], [ -92.687970521306326, 18.615690354718467 ], [ -92.688241781499158, 18.615853809404367 ], [ -92.688065739509739, 18.616048936964699 ], [ -92.687909642095278, 18.616011455546257 ], [ -92.687801869634868, 18.616138979938061 ], [ -92.6873660338848, 18.615854738537486 ], [ -92.68722618095947, 18.616140600685043 ], [ -92.68704088775074, 18.616056541666484 ], [ -92.686582765782063, 18.615720775236333 ], [ -92.686339013852816, 18.615580784153785 ], [ -92.685997778902276, 18.615375490468697 ], [ -92.685705260718493, 18.615216805879967 ], [ -92.685568787755983, 18.615123521250656 ], [ -92.685217794390837, 18.614918209867287 ], [ -92.685032520641514, 18.614824843249757 ], [ -92.684749918837937, 18.614582422714872 ], [ -92.684623361485663, 18.614405402943451 ], [ -92.684408807934105, 18.614311986668113 ], [ -92.68409684133492, 18.614116044307249 ], [ -92.683862922723705, 18.613938843854736 ], [ -92.683863146187477, 18.613817870465823 ], [ -92.684224685674408, 18.613595141009796 ], [ -92.684400128815767, 18.613725714631247 ], [ -92.684780365095719, 18.61394968783291 ], [ -92.685014267562991, 18.614136192805763 ], [ -92.685190071337615, 18.614071347130828 ], [ -92.685505786402175, 18.614205134296142 ] ] ] ] } },
{ "type": "Feature", "properties": { "CVEGEO": null, "NOM_ENT": null, "NOM_MUN": "3", "NOMGEO": "Colonia del Bosque", "CABECERA": null, "POB1": 0.0, "POB2": 0.0, "POB2_R": 0.0, "POB4": 0.0, "POB4_R": 0.0, "POB5": 0.0, "POB5_R": 0.0, "POB6": 0.0, "POB6_R": 0.0, "POB7": 0.0, "POB7_R": 0.0, "POB8": 0.0, "POB8_R": 0.0, "POB9": 0.0, "POB9_R": 0.0, "POB10": 0.0, "POB10_R": 0.0, "POB11": 0.0, "POB11_R": 0.0, "POB12": 0.0, "POB12_R": 0.0, "POB13": 0.0, "POB13_R": 0.0, "POB14": 0.0, "POB14_R": 0.0, "POB15": 0.0, "POB15_R": 0.0, "POB17": 0.0, "POB17_R": 0.0, "POB18": 0.0, "POB18_R": 0.0, "POB19": 0.0, "POB19_R": 0.0, "POB20": 0.0, "POB20_R": 0.0, "POB21": 0.0, "POB21_R": 0.0, "POB22": 0.0, "POB22_R": 0.0, "POB23": 0.0, "POB23_R": 0.0, "POB24": 0.0, "POB24_R": 0.0, "POB25": 0.0, "POB25_R": 0.0, "POB42": 0.0, "POB42_R": 0.0, "POB43": 0.0, "POB43_R": 0.0, "POB45": 0.0, "POB45_R": 0.0, "POB46": 0.0, "POB46_R": 0.0, "POB47": 0.0, "POB47_R": 0.0, "POB48": 0.0, "POB48_R": 0.0, "POB49": 0.0, "POB49_R": 0.0, "POB50": 0.0, "POB50_R": 0.0, "POB51": 0.0, "POB51_R": 0.0, "POB52": 0.0, "POB52_R": 0.0, "POB53": 0.0, "POB53_R": 0.0, "POB54": 0.0, "POB54_R": 0.0, "POB55": 0.0, "POB55_R": 0.0, "POB56": 0.0, "POB56_R": 0.0, "POB57": 0.0, "POB57_R": 0.0, "POB59": 0.0, "POB59_R": 0.0, "POB60": 0.0, "POB60_R": 0.0, "POB61": 0.0, "POB61_R": 0.0, "POB62": 0.0, "POB62_R": 0.0, "POB63": 0.0, "POB63_R": 0.0, "POB64": 0.0, "POB64_R": 0.0, "POB65": 0.0, "POB65_R": 0.0, "POB66": 0.0, "POB66_R": 0.0, "POB67": 0.0, "POB67_R": 0.0, "POB84": 0.0, "POB84_R": 0.0, "POB85": 0.0, "POB85_R": 0.0, "POB87": 0.0, "POB87_R": 0.0, "POB88": 0.0, "POB88_R": 0.0, "POB89": 0.0, "POB89_R": 0.0, "POB90": 0.0, "POB90_R": 0.0, "POB91": 0.0, "POB91_R": 0.0, "POB92": 0.0, "POB92_R": 0.0, "POB93": 0.0, "POB93_R": 0.0, "POB94": 0.0, "POB94_R": 0.0, "POB95": 0.0, "POB95_R": 0.0, "POB96": 0.0, "POB96_R": 0.0, "POB97": 0.0, "POB97_R": 0.0, "POB98": 0.0, "POB98_R": 0.0, "POB100": 0.0, "POB100_R": 0.0, "POB101": 0.0, "POB101_R": 0.0, "POB102": 0.0, "POB102_R": 0.0, "POB103": 0.0, "POB103_R": 0.0, "POB104": 0.0, "POB104_R": 0.0, "POB105": 0.0, "POB105_R": 0.0, "POB106": 0.0, "POB106_R": 0.0, "POB107": 0.0, "POB107_R": 0.0, "POB108": 0.0, "POB108_R": 0.0, "POB125_R": 0.0, "POB126_R": 0.0, "POB127_R": 0.0, "POB128_R": 0.0, "POB129_R": 0.0, "POB130_R": 0.0, "POB131_R": 0.0, "POB132_R": 0.0, "POB133_R": 0.0, "POB134_R": 0.0, "POB3": 0.0, "POB3_R": 0.0, "POB16": 0.0, "POB16_R": 0.0, "POB26": 0.0, "POB26_R": 0.0, "POB27": 0.0, "POB27_R": 0.0, "POB28": 0.0, "POB28_R": 0.0, "POB29": 0.0, "POB29_R": 0.0, "POB30": 0.0, "POB30_R": 0.0, "POB31": 0.0, "POB31_R": 0.0, "POB32": 0.0, "POB32_R": 0.0, "POB33": 0.0, "POB33_R": 0.0, "POB34": 0.0, "POB34_R": 0.0, "POB35": 0.0, "POB35_R": 0.0, "POB36": 0.0, "POB36_R": 0.0, "POB37": 0.0, "POB37_R": 0.0, "POB38": 0.0, "POB38_R": 0.0, "POB39": 0.0, "POB39_R": 0.0, "POB40": 0.0, "POB40_R": 0.0, "POB41": 0.0, "POB41_R": 0.0, "POB44": 0.0, "POB44_R": 0.0, "POB58": 0.0, "POB58_R": 0.0, "POB68": 0.0, "POB68_R": 0.0, "POB69": 0.0, "POB69_R": 0.0, "POB70": 0.0, "POB70_R": 0.0, "POB71": 0.0, "POB71_R": 0.0, "POB72": 0.0, "POB72_R": 0.0, "POB73": 0.0, "POB73_R": 0.0, "POB74": 0.0, "POB74_R": 0.0, "POB75": 0.0, "POB75_R": 0.0, "POB76": 0.0, "POB76_R": 0.0, "POB77": 0.0, "POB77_R": 0.0, "POB78": 0.0, "POB78_R": 0.0, "POB79": 0.0, "POB79_R": 0.0, "POB80": 0.0, "POB80_R": 0.0, "POB81": 0.0, "POB81_R": 0.0, "POB82": 0.0, "POB82_R": 0.0, "POB83": 0.0, "POB83_R": 0.0, "POB86": 0.0, "POB86_R": 0.0, "POB99": 0.0, "POB99_R": 0.0, "POB109": 0.0, "POB109_R": 0.0, "POB110": 0.0, "POB110_R": 0.0, "POB111": 0.0, "POB111_R": 0.0, "POB112": 0.0, "POB112_R": 0.0, "POB113": 0.0, "POB113_R": 0.0, "POB114": 0.0, "POB114_R": 0.0, "POB115": 0.0, "POB115_R": 0.0, "POB116": 0.0, "POB116_R": 0.0, "POB117": 0.0, "POB117_R": 0.0, "POB118": 0.0, "POB118_R": 0.0, "POB119": 0.0, "POB119_R": 0.0, "POB120": 0.0, "POB120_R": 0.0, "POB121": 0.0, "POB121_R": 0.0, "POB122": 0.0, "POB122_R": 0.0, "POB123": 0.0, "POB123_R": 0.0, "POB124": 0.0, "POB124_R": 0.0, "OID_1": 0 }, "geometry": { "type": "MultiPolygon", "coordinates": [ [ [ [ -92.686572055453283, 18.613911689483086 ], [ -92.686514876787527, 18.613878421979308 ], [ -92.686368385148128, 18.61379319055634 ], [ -92.686240393349848, 18.613827281741777 ], [ -92.685921025694626, 18.613578994922367 ], [ -92.686001135006862, 18.613495273236421 ], [ -92.686064966506436, 18.613567800175744 ], [ -92.686165001694718, 18.613518416087729 ], [ -92.68637257151839, 18.613690284197105 ], [ -92.686472599710115, 18.613644711539422 ], [ -92.686664234710406, 18.613786059954208 ], [ -92.686572055453283, 18.613911689483086 ] ] ] ] } }
]
}
